{
 "cells": [
  {
   "cell_type": "code",
   "execution_count": 1,
   "metadata": {},
   "outputs": [
    {
     "name": "stdout",
     "output_type": "stream",
     "text": [
      "Requirement already satisfied: python-metar in /opt/homebrew/lib/python3.11/site-packages (1.4.0)\n",
      "Note: you may need to restart the kernel to use updated packages.\n"
     ]
    }
   ],
   "source": [
    "%pip install python-metar"
   ]
  },
  {
   "cell_type": "code",
   "execution_count": 1,
   "metadata": {},
   "outputs": [],
   "source": [
    "import pandas as pd\n",
    "import numpy as np\n",
    "import matplotlib.pyplot as plt\n",
    "import seaborn as sns\n",
    "import datetime\n",
    "from metar import Metar\n",
    "from sklearn.linear_model import LinearRegression\n",
    "from sklearn.ensemble import RandomForestRegressor\n",
    "from sklearn.metrics import mean_squared_error\n",
    "from sklearn.model_selection import train_test_split\n",
    "pd.set_option('display.max_colwidth', None)\n",
    "pd.set_option('display.max_columns', None)\n",
    "pd.set_option('display.max_rows', None)"
   ]
  },
  {
   "cell_type": "code",
   "execution_count": 2,
   "metadata": {},
   "outputs": [],
   "source": [
    "bimtra_df = pd.read_csv('data/bimtra_df.csv')\n",
    "esperas_df = pd.read_csv('data/esperas_df.csv')\n",
    "metaf_df = pd.read_csv('data/metaf_df.csv')\n",
    "metar_df = pd.read_csv('data/metar_df.csv')\n",
    "tc_prev_df = pd.read_csv('data/tc-prev_df.csv')\n",
    "tc_real_df = pd.read_csv('data/tc-real_df.csv')\n",
    "test_data = pd.read_csv('data/idsc_test.csv')"
   ]
  },
  {
   "cell_type": "code",
   "execution_count": null,
   "metadata": {},
   "outputs": [],
   "source": [
    "bimtra_df.dt_arr = bimtra_df.dt_arr.apply(lambda x: datetime.datetime.utcfromtimestamp(int(x)/1000))\n",
    "bimtra_df.dt_dep = bimtra_df.dt_dep.apply(lambda x: datetime.datetime.utcfromtimestamp(int(x)/1000))\n",
    "esperas_df.hora = esperas_df.hora.apply(lambda x: datetime.datetime.utcfromtimestamp(int(x)/1000))\n",
    "metaf_df.hora = metaf_df.hora.apply(lambda x: datetime.datetime.utcfromtimestamp(int(x)/1000))\n",
    "metar_df.hora = metar_df.hora.apply(lambda x: datetime.datetime.utcfromtimestamp(int(x)/1000))\n",
    "tc_prev_df.hora = tc_prev_df.hora.apply(lambda x: datetime.datetime.utcfromtimestamp(int(x)/1000))\n",
    "tc_real_df.hora = tc_real_df.hora.apply(lambda x: datetime.datetime.utcfromtimestamp(int(x)/1000))"
   ]
  },
  {
   "cell_type": "code",
   "execution_count": null,
   "metadata": {},
   "outputs": [],
   "source": [
    "test_data.head()"
   ]
  },
  {
   "cell_type": "code",
   "execution_count": null,
   "metadata": {},
   "outputs": [],
   "source": [
    "bimtra_df['solution'] = ((bimtra_df.dt_arr - bimtra_df.dt_dep).dt.total_seconds()).astype(int)\n",
    "bimtra_df.head()"
   ]
  },
  {
   "cell_type": "code",
   "execution_count": null,
   "metadata": {},
   "outputs": [],
   "source": [
    "display(test_data.head())\n",
    "\n",
    "display(bimtra_df.head())\n",
    "display(esperas_df.head())\n",
    "# display(f'metaf_df: {metaf_df.columns}')\n",
    "# display(f'metar_df: {metar_df.columns}')\n",
    "display(tc_prev_df.head())\n",
    "display(tc_real_df.head())"
   ]
  },
  {
   "cell_type": "code",
   "execution_count": null,
   "metadata": {},
   "outputs": [],
   "source": [
    "bimtra_df['hora_ref'] = bimtra_df.dt_dep.apply(lambda x: x.replace(minute=0, second=0, microsecond=0))\n",
    "bimtra_df.head()"
   ]
  },
  {
   "cell_type": "code",
   "execution_count": null,
   "metadata": {},
   "outputs": [],
   "source": [
    "display(f'idsc_test_df: {test_data.columns}')\n",
    "\n",
    "display(f'bimtra_df: {bimtra_df.columns}')\n",
    "display(f'esperas_df: {esperas_df.columns}')\n",
    "# display(f'metaf_df: {metaf_df.columns}')\n",
    "# display(f'metar_df: {metar_df.columns}')\n",
    "display(f'tc_prev_df: {tc_prev_df.columns}')\n",
    "display(f'tc_real_df: {tc_real_df.columns}')"
   ]
  },
  {
   "cell_type": "code",
   "execution_count": null,
   "metadata": {},
   "outputs": [],
   "source": [
    "print(f'bimtra_df: {bimtra_df.shape}')\n",
    "print(f'esperas_df: {esperas_df.shape}')\n",
    "print(f'metaf_df: {metaf_df.shape}')\n",
    "print(f'metar_df: {metar_df.shape}')\n",
    "print(f'tc_prev_df: {tc_prev_df.shape}')\n",
    "print(f'tc_real_df: {tc_real_df.shape}')"
   ]
  },
  {
   "cell_type": "code",
   "execution_count": null,
   "metadata": {},
   "outputs": [],
   "source": [
    "tc_prev_df['aero_tcp'] = tc_prev_df['aero']\n",
    "tc_prev_df = tc_prev_df.drop(['aero'], axis=1)\n",
    "tc_real_df['aero_tcr'] = tc_real_df['aero']\n",
    "tc_real_df = tc_real_df.drop(['aero'], axis=1)\n",
    "\n",
    "display(tc_prev_df.head())\n",
    "display(tc_real_df.head())\n",
    "display(tc_real_df.shape)"
   ]
  },
  {
   "cell_type": "code",
   "execution_count": null,
   "metadata": {},
   "outputs": [],
   "source": [
    "tc_real_df.isna().sum()"
   ]
  },
  {
   "cell_type": "code",
   "execution_count": null,
   "metadata": {},
   "outputs": [],
   "source": [
    "esperas_df['aero_esperas'] = esperas_df['aero']\n",
    "esperas_df = esperas_df.drop(['aero'], axis=1)\n",
    "esperas_df['hora_esperas'] = esperas_df['hora']\n",
    "esperas_df = esperas_df.drop(['hora'], axis=1)\n",
    "esperas_df['hora_ref'] = esperas_df['hora_esperas']\n",
    "esperas_df['destino'] = esperas_df['aero_esperas']\n",
    "\n",
    "esperas_df.head()"
   ]
  },
  {
   "cell_type": "code",
   "execution_count": null,
   "metadata": {},
   "outputs": [],
   "source": [
    "print(f'bimtra_df: {bimtra_df.shape}')\n",
    "print(f'esperas_df: {esperas_df.shape}')\n",
    "print(f'metaf_df: {metaf_df.shape}')\n",
    "print(f'metar_df: {metar_df.shape}')\n",
    "print(f'tc_prev_df: {tc_prev_df.shape}')\n",
    "print(f'tc_real_df: {tc_real_df.shape}')"
   ]
  },
  {
   "cell_type": "code",
   "execution_count": null,
   "metadata": {},
   "outputs": [],
   "source": [
    "tc_real_df['hora_ref'] = tc_real_df.hora.apply(lambda x: x.replace(minute=0, second=0, microsecond=0))\n",
    "tc_prev_df['hora_ref'] = tc_prev_df.hora\n",
    "\n",
    "tc_real_df['hora_tcr'] = tc_real_df.hora\n",
    "tc_prev_df['hora_tcp'] = tc_prev_df.hora\n",
    "tc_real_df = tc_real_df.drop(['hora'], axis=1)\n",
    "tc_prev_df = tc_prev_df.drop(['hora'], axis=1)\n",
    "\n",
    "tc_real_df['destino'] = tc_real_df.aero_tcr\n",
    "tc_prev_df['destino'] = tc_prev_df.aero_tcp\n",
    "\n",
    "\n",
    "display(tc_real_df.head())\n",
    "display(tc_prev_df.head())"
   ]
  },
  {
   "cell_type": "code",
   "execution_count": null,
   "metadata": {},
   "outputs": [],
   "source": [
    "tc_prev_df['destino'] = 'SB' + tc_prev_df['destino'].astype(str)\n",
    "tc_prev_df['destino'].unique()\n",
    "\n",
    "tc_real_df['destino'] = 'SB' + tc_real_df['destino'].astype(str)\n",
    "tc_real_df['destino'].unique()\n",
    "\n",
    "tc_prev_df['aero_tcp'] = 'SB' + tc_prev_df['aero_tcp'].astype(str)\n",
    "tc_prev_df['aero_tcp'].unique()\n",
    "\n",
    "tc_real_df['aero_tcr'] = 'SB' + tc_real_df['aero_tcr'].astype(str)\n",
    "tc_real_df['aero_tcr'].unique()"
   ]
  },
  {
   "cell_type": "code",
   "execution_count": null,
   "metadata": {},
   "outputs": [],
   "source": [
    "train_data = pd.merge(bimtra_df, esperas_df, how='left', on=['hora_ref', 'destino'])\n",
    "train_data = pd.merge(train_data, tc_prev_df, how='left', on=['hora_ref', 'destino'])\n",
    "train_data = pd.merge(train_data, tc_real_df, how='left', on=['hora_ref', 'destino'])\n",
    "# train_data['hora_ref'] = train_data['hora_ref'].dt.strftime('%Y-%m-%d %H:%M:%S')"
   ]
  },
  {
   "cell_type": "code",
   "execution_count": null,
   "metadata": {},
   "outputs": [],
   "source": [
    "display(train_data.sample(10))\n",
    "display(train_data.shape)\n"
   ]
  },
  {
   "cell_type": "code",
   "execution_count": null,
   "metadata": {},
   "outputs": [],
   "source": [
    "train_data.isna().sum() "
   ]
  },
  {
   "cell_type": "code",
   "execution_count": null,
   "metadata": {},
   "outputs": [],
   "source": [
    "train_data.shape"
   ]
  },
  {
   "cell_type": "code",
   "execution_count": null,
   "metadata": {},
   "outputs": [],
   "source": [
    "train_data = train_data.drop(columns=['nova_cabeceira', 'antiga_cabeceira', 'dt_arr', 'hora_ref', 'hora_esperas', 'dt_dep', 'hora_tcp', 'hora_tcr'], axis=1)\n",
    "\n",
    "train_data = train_data[['flightid', 'origem', 'destino', 'esperas', 'aero_esperas', 'troca', 'aero_tcp', 'aero_tcr', 'solution']]\n",
    "\n",
    "train_data.head()"
   ]
  },
  {
   "cell_type": "code",
   "execution_count": null,
   "metadata": {},
   "outputs": [],
   "source": [
    "test_data = test_data.drop(columns=['snapshot_radar', 'path', 'hora_metaf', 'metaf', 'aero_metaf', 'hora_metar', 'metar', 'aero_metar', 'hora_ref', 'hora_esperas', 'dt_dep', 'hora_tcp', 'hora_tcr'], axis=1)\n",
    "test_data = test_data[['flightid', 'origem', 'destino', 'esperas', 'aero_esperas', 'troca', 'aero_tcp', 'aero_tcr']]\n",
    "test_data.head()"
   ]
  },
  {
   "cell_type": "code",
   "execution_count": null,
   "metadata": {},
   "outputs": [],
   "source": [
    "cat_columns = ['origem', 'destino', 'aero_esperas', 'aero_tcp', 'aero_tcr']\n",
    "train_data, test_data = pd.get_dummies(train_data, columns=cat_columns, dtype=int), pd.get_dummies(test_data, columns=cat_columns, dtype=int)\n",
    "\n",
    "for column in train_data.columns:\n",
    "    if column == 'solution':\n",
    "        continue\n",
    "    if column not in test_data.columns:\n",
    "        test_data[column] = 0"
   ]
  },
  {
   "cell_type": "code",
   "execution_count": null,
   "metadata": {},
   "outputs": [],
   "source": [
    "train_data.head()"
   ]
  },
  {
   "cell_type": "code",
   "execution_count": null,
   "metadata": {},
   "outputs": [],
   "source": [
    "train_data.describe().columns\n"
   ]
  },
  {
   "cell_type": "code",
   "execution_count": null,
   "metadata": {},
   "outputs": [],
   "source": [
    "features = train_data.columns\n",
    "features = features.drop(['flightid', 'solution'])\n",
    "target = ['solution']\n",
    "\n",
    "X_train, X_test, y_train, y_test = train_test_split(train_data[features], train_data[target], test_size=0.2, random_state=42)\n",
    "\n",
    "model = LinearRegression()\n",
    "model.fit(X_train, y_train)\n",
    "y_pred = model.predict(X_test)\n",
    "print(f'Linear Regression MSE: {mean_squared_error(y_test, y_pred)}')\n",
    "\n",
    "model2 = RandomForestRegressor(n_estimators=100, max_depth=10, random_state=42)\n",
    "model2.fit(X_train, y_train)\n",
    "y_pred = model2.predict(X_test)\n",
    "y_pred = np.round_(y_pred)\n",
    "print(y_pred)\n",
    "print(f'Random Forest Regressor MSE: {mean_squared_error(y_test, y_pred)}')"
   ]
  },
  {
   "cell_type": "code",
   "execution_count": null,
   "metadata": {},
   "outputs": [],
   "source": [
    "X_train, y_train = train_data[features], train_data[target]\n",
    "X_test = test_data[features]\n",
    "model = RandomForestRegressor(n_estimators=100, max_depth=10, random_state=42)\n",
    "model.fit(X_train, y_train)\n",
    "y_pred = model.predict(X_test)\n",
    "y_pred = np.round_(y_pred)\n",
    "print(y_pred)\n",
    "\n",
    "output = pd.DataFrame({'ID': test_data.flightid, 'solution': y_pred})\n",
    "\n",
    "output.to_csv('data/submission.csv', index=False)"
   ]
  },
  {
   "cell_type": "code",
   "execution_count": 4,
   "metadata": {},
   "outputs": [
    {
     "data": {
      "text/html": [
       "<div>\n",
       "<style scoped>\n",
       "    .dataframe tbody tr th:only-of-type {\n",
       "        vertical-align: middle;\n",
       "    }\n",
       "\n",
       "    .dataframe tbody tr th {\n",
       "        vertical-align: top;\n",
       "    }\n",
       "\n",
       "    .dataframe thead th {\n",
       "        text-align: right;\n",
       "    }\n",
       "</style>\n",
       "<table border=\"1\" class=\"dataframe\">\n",
       "  <thead>\n",
       "    <tr style=\"text-align: right;\">\n",
       "      <th></th>\n",
       "      <th>hora</th>\n",
       "      <th>metar</th>\n",
       "      <th>aero</th>\n",
       "    </tr>\n",
       "  </thead>\n",
       "  <tbody>\n",
       "    <tr>\n",
       "      <th>106739</th>\n",
       "      <td>1684004400000</td>\n",
       "      <td>METAR SBSV 131900Z 16009KT 9999 BKN020 FEW021TCU 29/24 Q1013=</td>\n",
       "      <td>SBSV</td>\n",
       "    </tr>\n",
       "    <tr>\n",
       "      <th>106740</th>\n",
       "      <td>1684008000000</td>\n",
       "      <td>METAR SBSV 132000Z 13007KT 9999 BKN020 29/24 Q1013=</td>\n",
       "      <td>SBSV</td>\n",
       "    </tr>\n",
       "    <tr>\n",
       "      <th>106741</th>\n",
       "      <td>1684011600000</td>\n",
       "      <td>METAR SBSV 132100Z 12005KT 9999 SCT020 FEW025TCU 28/24 Q1014=</td>\n",
       "      <td>SBSV</td>\n",
       "    </tr>\n",
       "    <tr>\n",
       "      <th>106742</th>\n",
       "      <td>1684015200000</td>\n",
       "      <td>METAR SBSV 132200Z 11006KT 9999 SCT020 FEW025TCU 28/24 Q1014=</td>\n",
       "      <td>SBSV</td>\n",
       "    </tr>\n",
       "    <tr>\n",
       "      <th>106743</th>\n",
       "      <td>1684018800000</td>\n",
       "      <td>METAR SBSV 132300Z 11009KT 9999 SCT020 FEW025TCU 28/25 Q1015=</td>\n",
       "      <td>SBSV</td>\n",
       "    </tr>\n",
       "  </tbody>\n",
       "</table>\n",
       "</div>"
      ],
      "text/plain": [
       "                 hora  \\\n",
       "106739  1684004400000   \n",
       "106740  1684008000000   \n",
       "106741  1684011600000   \n",
       "106742  1684015200000   \n",
       "106743  1684018800000   \n",
       "\n",
       "                                                                metar  aero  \n",
       "106739  METAR SBSV 131900Z 16009KT 9999 BKN020 FEW021TCU 29/24 Q1013=  SBSV  \n",
       "106740            METAR SBSV 132000Z 13007KT 9999 BKN020 29/24 Q1013=  SBSV  \n",
       "106741  METAR SBSV 132100Z 12005KT 9999 SCT020 FEW025TCU 28/24 Q1014=  SBSV  \n",
       "106742  METAR SBSV 132200Z 11006KT 9999 SCT020 FEW025TCU 28/24 Q1014=  SBSV  \n",
       "106743  METAR SBSV 132300Z 11009KT 9999 SCT020 FEW025TCU 28/25 Q1015=  SBSV  "
      ]
     },
     "execution_count": 4,
     "metadata": {},
     "output_type": "execute_result"
    }
   ],
   "source": [
    "metar_df.tail()"
   ]
  },
  {
   "cell_type": "code",
   "execution_count": 5,
   "metadata": {},
   "outputs": [
    {
     "name": "stdout",
     "output_type": "stream",
     "text": [
      "METAR SBRJ 100800Z 31005KT 9000 SCT013 22/21 Q1009 \n",
      "station: SBRJ\n",
      "type: routine report, cycle 8 (automatic report)\n",
      "time: Sun Sep 10 08:00:00 2023\n",
      "temperature: 22.0 C\n",
      "dew point: 21.0 C\n",
      "wind: NW at 5 knots\n",
      "visibility: 9000 meters\n",
      "pressure: 1009.0 mb\n",
      "sky: scattered clouds at 1300 feet\n",
      "METAR: METAR SBRJ 100800Z 31005KT 9000 SCT013 22/21 Q1009  \n",
      "\n",
      "Station_Id: SBRJ\n",
      "Type: METAR\n",
      "Time: 2023-09-10 08:00:00\n",
      "Day: 10\n",
      "Temperature: 22.0 C\n",
      "Dew Point: 21.0 C\n",
      "Wind Direction: 310 degrees\n",
      "Visibility: 9000 meters\n",
      "Wind Speed: 5 knots\n",
      "Wind Gust: None\n",
      "Pressure: 1009.0 mb\n",
      "Precipitation: None\n"
     ]
    }
   ],
   "source": [
    "# metar_df.metar = metar_df.metar.apply(lambda x: x.replace('=', ' '))\n",
    "# metar_sample = metar_df['metar'].sample(1).iloc[0]\n",
    "# print(metar_sample)\n",
    "\n",
    "# #metar_sample = 'METAR SBRF 152000Z 13005KT 9999 FEW020 SCT070 28/21 Q1011'\n",
    "\n",
    "# report = Metar.Metar(metar_sample)\n",
    "# print(report, '\\n')\n",
    "\n",
    "# print(f'Station_Id: {report.station_id}')\n",
    "# print(f'Type: {report.type}')\n",
    "# print(f'Time: {report.time}')\n",
    "# print(f'Day: {report._day}')\n",
    "# print(f'Temperature: {report.temp}')\n",
    "# print(f'Dew Point: {report.dewpt}')\n",
    "# print(f'Wind Direction: {report.wind_dir}')\n",
    "# print(f'Visibility: {report.vis}')\n",
    "# print(f'Wind Speed: {report.wind_speed}')\n",
    "# print(f'Wind Gust: {report.wind_gust}')\n",
    "# print(f'Pressure: {report.press}')\n",
    "# print(f'Precipitation: {report.precip_1hr}')\n"
   ]
  },
  {
   "cell_type": "code",
   "execution_count": 12,
   "metadata": {},
   "outputs": [
    {
     "data": {
      "text/html": [
       "<div>\n",
       "<style scoped>\n",
       "    .dataframe tbody tr th:only-of-type {\n",
       "        vertical-align: middle;\n",
       "    }\n",
       "\n",
       "    .dataframe tbody tr th {\n",
       "        vertical-align: top;\n",
       "    }\n",
       "\n",
       "    .dataframe thead th {\n",
       "        text-align: right;\n",
       "    }\n",
       "</style>\n",
       "<table border=\"1\" class=\"dataframe\">\n",
       "  <thead>\n",
       "    <tr style=\"text-align: right;\">\n",
       "      <th></th>\n",
       "      <th>hora</th>\n",
       "      <th>metar</th>\n",
       "      <th>aero</th>\n",
       "      <th>temperature</th>\n",
       "      <th>dew_point</th>\n",
       "      <th>wind_direction</th>\n",
       "      <th>visibility</th>\n",
       "      <th>wind_speed</th>\n",
       "      <th>wind_gust</th>\n",
       "      <th>pressure</th>\n",
       "      <th>precipitation</th>\n",
       "    </tr>\n",
       "  </thead>\n",
       "  <tbody>\n",
       "    <tr>\n",
       "      <th>0</th>\n",
       "      <td>1654041600000</td>\n",
       "      <td>METAR SBBR 010000Z 07002KT CAVOK 21/08 Q1018</td>\n",
       "      <td>SBBR</td>\n",
       "      <td>28.0</td>\n",
       "      <td>25.0</td>\n",
       "      <td>110 degrees</td>\n",
       "      <td>10000.0</td>\n",
       "      <td>9.0</td>\n",
       "      <td>None</td>\n",
       "      <td>1015.0</td>\n",
       "      <td>None</td>\n",
       "    </tr>\n",
       "    <tr>\n",
       "      <th>1</th>\n",
       "      <td>1654045200000</td>\n",
       "      <td>METAR SBBR 010100Z 10002KT CAVOK 20/09 Q1019</td>\n",
       "      <td>SBBR</td>\n",
       "      <td>28.0</td>\n",
       "      <td>25.0</td>\n",
       "      <td>110 degrees</td>\n",
       "      <td>10000.0</td>\n",
       "      <td>9.0</td>\n",
       "      <td>None</td>\n",
       "      <td>1015.0</td>\n",
       "      <td>None</td>\n",
       "    </tr>\n",
       "    <tr>\n",
       "      <th>2</th>\n",
       "      <td>1654048800000</td>\n",
       "      <td>METAR SBBR 010200Z 00000KT CAVOK 16/09 Q1019</td>\n",
       "      <td>SBBR</td>\n",
       "      <td>28.0</td>\n",
       "      <td>25.0</td>\n",
       "      <td>110 degrees</td>\n",
       "      <td>10000.0</td>\n",
       "      <td>9.0</td>\n",
       "      <td>None</td>\n",
       "      <td>1015.0</td>\n",
       "      <td>None</td>\n",
       "    </tr>\n",
       "    <tr>\n",
       "      <th>3</th>\n",
       "      <td>1654052400000</td>\n",
       "      <td>METAR SBBR 010300Z 27002KT CAVOK 16/09 Q1019</td>\n",
       "      <td>SBBR</td>\n",
       "      <td>28.0</td>\n",
       "      <td>25.0</td>\n",
       "      <td>110 degrees</td>\n",
       "      <td>10000.0</td>\n",
       "      <td>9.0</td>\n",
       "      <td>None</td>\n",
       "      <td>1015.0</td>\n",
       "      <td>None</td>\n",
       "    </tr>\n",
       "    <tr>\n",
       "      <th>4</th>\n",
       "      <td>1654056000000</td>\n",
       "      <td>METAR SBBR 010400Z 00000KT CAVOK 14/09 Q1018</td>\n",
       "      <td>SBBR</td>\n",
       "      <td>28.0</td>\n",
       "      <td>25.0</td>\n",
       "      <td>110 degrees</td>\n",
       "      <td>10000.0</td>\n",
       "      <td>9.0</td>\n",
       "      <td>None</td>\n",
       "      <td>1015.0</td>\n",
       "      <td>None</td>\n",
       "    </tr>\n",
       "  </tbody>\n",
       "</table>\n",
       "</div>"
      ],
      "text/plain": [
       "            hora                                          metar  aero  \\\n",
       "0  1654041600000  METAR SBBR 010000Z 07002KT CAVOK 21/08 Q1018   SBBR   \n",
       "1  1654045200000  METAR SBBR 010100Z 10002KT CAVOK 20/09 Q1019   SBBR   \n",
       "2  1654048800000  METAR SBBR 010200Z 00000KT CAVOK 16/09 Q1019   SBBR   \n",
       "3  1654052400000  METAR SBBR 010300Z 27002KT CAVOK 16/09 Q1019   SBBR   \n",
       "4  1654056000000  METAR SBBR 010400Z 00000KT CAVOK 14/09 Q1018   SBBR   \n",
       "\n",
       "   temperature  dew_point wind_direction  visibility  wind_speed wind_gust  \\\n",
       "0         28.0       25.0    110 degrees     10000.0         9.0      None   \n",
       "1         28.0       25.0    110 degrees     10000.0         9.0      None   \n",
       "2         28.0       25.0    110 degrees     10000.0         9.0      None   \n",
       "3         28.0       25.0    110 degrees     10000.0         9.0      None   \n",
       "4         28.0       25.0    110 degrees     10000.0         9.0      None   \n",
       "\n",
       "   pressure precipitation  \n",
       "0    1015.0          None  \n",
       "1    1015.0          None  \n",
       "2    1015.0          None  \n",
       "3    1015.0          None  \n",
       "4    1015.0          None  "
      ]
     },
     "execution_count": 12,
     "metadata": {},
     "output_type": "execute_result"
    }
   ],
   "source": [
    "metar_df.metar = metar_df.metar.apply(lambda x: x.replace('=', ''))\n",
    "for report in metar_df['metar']:\n",
    "    try:\n",
    "        report = Metar.Metar(report)\n",
    "        metar_df['temperature'] = report.temp.value()\n",
    "        metar_df['dew_point'] = report.dewpt.value()\n",
    "        metar_df['wind_direction'] = report.wind_dir\n",
    "        metar_df['visibility'] = report.vis.value()\n",
    "        metar_df['wind_speed'] = report.wind_speed.value()\n",
    "        metar_df['wind_gust'] = report.wind_gust\n",
    "        metar_df['pressure'] = report.press.value()\n",
    "        metar_df['precipitation'] = report.precip_1hr\n",
    "    except:\n",
    "        continue\n",
    "    \n",
    "\n",
    "metar_df.head()"
   ]
  },
  {
   "cell_type": "code",
   "execution_count": null,
   "metadata": {},
   "outputs": [],
   "source": []
  },
  {
   "cell_type": "code",
   "execution_count": 13,
   "metadata": {},
   "outputs": [
    {
     "data": {
      "text/plain": [
       "(106744, 11)"
      ]
     },
     "execution_count": 13,
     "metadata": {},
     "output_type": "execute_result"
    }
   ],
   "source": [
    "metar_df.shape"
   ]
  },
  {
   "cell_type": "code",
   "execution_count": 14,
   "metadata": {},
   "outputs": [
    {
     "data": {
      "text/html": [
       "<div>\n",
       "<style scoped>\n",
       "    .dataframe tbody tr th:only-of-type {\n",
       "        vertical-align: middle;\n",
       "    }\n",
       "\n",
       "    .dataframe tbody tr th {\n",
       "        vertical-align: top;\n",
       "    }\n",
       "\n",
       "    .dataframe thead th {\n",
       "        text-align: right;\n",
       "    }\n",
       "</style>\n",
       "<table border=\"1\" class=\"dataframe\">\n",
       "  <thead>\n",
       "    <tr style=\"text-align: right;\">\n",
       "      <th></th>\n",
       "      <th>hora</th>\n",
       "      <th>metar</th>\n",
       "      <th>aero</th>\n",
       "      <th>temperature</th>\n",
       "      <th>dew_point</th>\n",
       "      <th>wind_direction</th>\n",
       "      <th>visibility</th>\n",
       "      <th>wind_speed</th>\n",
       "      <th>wind_gust</th>\n",
       "      <th>pressure</th>\n",
       "      <th>precipitation</th>\n",
       "    </tr>\n",
       "  </thead>\n",
       "  <tbody>\n",
       "    <tr>\n",
       "      <th>0</th>\n",
       "      <td>1654041600000</td>\n",
       "      <td>METAR SBBR 010000Z 07002KT CAVOK 21/08 Q1018</td>\n",
       "      <td>SBBR</td>\n",
       "      <td>28.0</td>\n",
       "      <td>25.0</td>\n",
       "      <td>110 degrees</td>\n",
       "      <td>10000.0</td>\n",
       "      <td>9.0</td>\n",
       "      <td>None</td>\n",
       "      <td>1015.0</td>\n",
       "      <td>None</td>\n",
       "    </tr>\n",
       "    <tr>\n",
       "      <th>1</th>\n",
       "      <td>1654045200000</td>\n",
       "      <td>METAR SBBR 010100Z 10002KT CAVOK 20/09 Q1019</td>\n",
       "      <td>SBBR</td>\n",
       "      <td>28.0</td>\n",
       "      <td>25.0</td>\n",
       "      <td>110 degrees</td>\n",
       "      <td>10000.0</td>\n",
       "      <td>9.0</td>\n",
       "      <td>None</td>\n",
       "      <td>1015.0</td>\n",
       "      <td>None</td>\n",
       "    </tr>\n",
       "    <tr>\n",
       "      <th>2</th>\n",
       "      <td>1654048800000</td>\n",
       "      <td>METAR SBBR 010200Z 00000KT CAVOK 16/09 Q1019</td>\n",
       "      <td>SBBR</td>\n",
       "      <td>28.0</td>\n",
       "      <td>25.0</td>\n",
       "      <td>110 degrees</td>\n",
       "      <td>10000.0</td>\n",
       "      <td>9.0</td>\n",
       "      <td>None</td>\n",
       "      <td>1015.0</td>\n",
       "      <td>None</td>\n",
       "    </tr>\n",
       "    <tr>\n",
       "      <th>3</th>\n",
       "      <td>1654052400000</td>\n",
       "      <td>METAR SBBR 010300Z 27002KT CAVOK 16/09 Q1019</td>\n",
       "      <td>SBBR</td>\n",
       "      <td>28.0</td>\n",
       "      <td>25.0</td>\n",
       "      <td>110 degrees</td>\n",
       "      <td>10000.0</td>\n",
       "      <td>9.0</td>\n",
       "      <td>None</td>\n",
       "      <td>1015.0</td>\n",
       "      <td>None</td>\n",
       "    </tr>\n",
       "    <tr>\n",
       "      <th>4</th>\n",
       "      <td>1654056000000</td>\n",
       "      <td>METAR SBBR 010400Z 00000KT CAVOK 14/09 Q1018</td>\n",
       "      <td>SBBR</td>\n",
       "      <td>28.0</td>\n",
       "      <td>25.0</td>\n",
       "      <td>110 degrees</td>\n",
       "      <td>10000.0</td>\n",
       "      <td>9.0</td>\n",
       "      <td>None</td>\n",
       "      <td>1015.0</td>\n",
       "      <td>None</td>\n",
       "    </tr>\n",
       "    <tr>\n",
       "      <th>5</th>\n",
       "      <td>1654059600000</td>\n",
       "      <td>METAR SBBR 010500Z 27004KT CAVOK 13/08 Q1018</td>\n",
       "      <td>SBBR</td>\n",
       "      <td>28.0</td>\n",
       "      <td>25.0</td>\n",
       "      <td>110 degrees</td>\n",
       "      <td>10000.0</td>\n",
       "      <td>9.0</td>\n",
       "      <td>None</td>\n",
       "      <td>1015.0</td>\n",
       "      <td>None</td>\n",
       "    </tr>\n",
       "    <tr>\n",
       "      <th>6</th>\n",
       "      <td>1654063200000</td>\n",
       "      <td>METAR SBBR 010600Z 25003KT CAVOK 14/08 Q1018</td>\n",
       "      <td>SBBR</td>\n",
       "      <td>28.0</td>\n",
       "      <td>25.0</td>\n",
       "      <td>110 degrees</td>\n",
       "      <td>10000.0</td>\n",
       "      <td>9.0</td>\n",
       "      <td>None</td>\n",
       "      <td>1015.0</td>\n",
       "      <td>None</td>\n",
       "    </tr>\n",
       "    <tr>\n",
       "      <th>7</th>\n",
       "      <td>1654066800000</td>\n",
       "      <td>METAR SBBR 010700Z 28002KT CAVOK 12/08 Q1018</td>\n",
       "      <td>SBBR</td>\n",
       "      <td>28.0</td>\n",
       "      <td>25.0</td>\n",
       "      <td>110 degrees</td>\n",
       "      <td>10000.0</td>\n",
       "      <td>9.0</td>\n",
       "      <td>None</td>\n",
       "      <td>1015.0</td>\n",
       "      <td>None</td>\n",
       "    </tr>\n",
       "    <tr>\n",
       "      <th>8</th>\n",
       "      <td>1654070400000</td>\n",
       "      <td>METAR SBBR 010800Z VRB01KT CAVOK 11/08 Q1018</td>\n",
       "      <td>SBBR</td>\n",
       "      <td>28.0</td>\n",
       "      <td>25.0</td>\n",
       "      <td>110 degrees</td>\n",
       "      <td>10000.0</td>\n",
       "      <td>9.0</td>\n",
       "      <td>None</td>\n",
       "      <td>1015.0</td>\n",
       "      <td>None</td>\n",
       "    </tr>\n",
       "    <tr>\n",
       "      <th>9</th>\n",
       "      <td>1654074000000</td>\n",
       "      <td>METAR SBBR 010900Z 26002KT CAVOK 12/09 Q1019</td>\n",
       "      <td>SBBR</td>\n",
       "      <td>28.0</td>\n",
       "      <td>25.0</td>\n",
       "      <td>110 degrees</td>\n",
       "      <td>10000.0</td>\n",
       "      <td>9.0</td>\n",
       "      <td>None</td>\n",
       "      <td>1015.0</td>\n",
       "      <td>None</td>\n",
       "    </tr>\n",
       "    <tr>\n",
       "      <th>10</th>\n",
       "      <td>1654077600000</td>\n",
       "      <td>METAR SBBR 011000Z VRB02KT CAVOK 11/08 Q1019</td>\n",
       "      <td>SBBR</td>\n",
       "      <td>28.0</td>\n",
       "      <td>25.0</td>\n",
       "      <td>110 degrees</td>\n",
       "      <td>10000.0</td>\n",
       "      <td>9.0</td>\n",
       "      <td>None</td>\n",
       "      <td>1015.0</td>\n",
       "      <td>None</td>\n",
       "    </tr>\n",
       "    <tr>\n",
       "      <th>11</th>\n",
       "      <td>1654081200000</td>\n",
       "      <td>METAR SBBR 011100Z VRB01KT CAVOK 15/10 Q1020</td>\n",
       "      <td>SBBR</td>\n",
       "      <td>28.0</td>\n",
       "      <td>25.0</td>\n",
       "      <td>110 degrees</td>\n",
       "      <td>10000.0</td>\n",
       "      <td>9.0</td>\n",
       "      <td>None</td>\n",
       "      <td>1015.0</td>\n",
       "      <td>None</td>\n",
       "    </tr>\n",
       "    <tr>\n",
       "      <th>12</th>\n",
       "      <td>1654084800000</td>\n",
       "      <td>METAR SBBR 011200Z VRB02KT CAVOK 20/11 Q1021</td>\n",
       "      <td>SBBR</td>\n",
       "      <td>28.0</td>\n",
       "      <td>25.0</td>\n",
       "      <td>110 degrees</td>\n",
       "      <td>10000.0</td>\n",
       "      <td>9.0</td>\n",
       "      <td>None</td>\n",
       "      <td>1015.0</td>\n",
       "      <td>None</td>\n",
       "    </tr>\n",
       "    <tr>\n",
       "      <th>13</th>\n",
       "      <td>1654088400000</td>\n",
       "      <td>METAR SBBR 011300Z 08009KT 050V110 CAVOK 23/12 Q1020</td>\n",
       "      <td>SBBR</td>\n",
       "      <td>28.0</td>\n",
       "      <td>25.0</td>\n",
       "      <td>110 degrees</td>\n",
       "      <td>10000.0</td>\n",
       "      <td>9.0</td>\n",
       "      <td>None</td>\n",
       "      <td>1015.0</td>\n",
       "      <td>None</td>\n",
       "    </tr>\n",
       "    <tr>\n",
       "      <th>14</th>\n",
       "      <td>1654092000000</td>\n",
       "      <td>METAR SBBR 011400Z 09011KT CAVOK 25/12 Q1020</td>\n",
       "      <td>SBBR</td>\n",
       "      <td>28.0</td>\n",
       "      <td>25.0</td>\n",
       "      <td>110 degrees</td>\n",
       "      <td>10000.0</td>\n",
       "      <td>9.0</td>\n",
       "      <td>None</td>\n",
       "      <td>1015.0</td>\n",
       "      <td>None</td>\n",
       "    </tr>\n",
       "    <tr>\n",
       "      <th>15</th>\n",
       "      <td>1654095600000</td>\n",
       "      <td>METAR SBBR 011500Z 09009KT 060V130 CAVOK 27/11 Q1019</td>\n",
       "      <td>SBBR</td>\n",
       "      <td>28.0</td>\n",
       "      <td>25.0</td>\n",
       "      <td>110 degrees</td>\n",
       "      <td>10000.0</td>\n",
       "      <td>9.0</td>\n",
       "      <td>None</td>\n",
       "      <td>1015.0</td>\n",
       "      <td>None</td>\n",
       "    </tr>\n",
       "    <tr>\n",
       "      <th>16</th>\n",
       "      <td>1654099200000</td>\n",
       "      <td>METAR SBBR 011600Z 08006KT 320V130 CAVOK 27/10 Q1018</td>\n",
       "      <td>SBBR</td>\n",
       "      <td>28.0</td>\n",
       "      <td>25.0</td>\n",
       "      <td>110 degrees</td>\n",
       "      <td>10000.0</td>\n",
       "      <td>9.0</td>\n",
       "      <td>None</td>\n",
       "      <td>1015.0</td>\n",
       "      <td>None</td>\n",
       "    </tr>\n",
       "    <tr>\n",
       "      <th>17</th>\n",
       "      <td>1654102800000</td>\n",
       "      <td>METAR SBBR 011700Z 06007KT 010V110 CAVOK 28/10 Q1017</td>\n",
       "      <td>SBBR</td>\n",
       "      <td>28.0</td>\n",
       "      <td>25.0</td>\n",
       "      <td>110 degrees</td>\n",
       "      <td>10000.0</td>\n",
       "      <td>9.0</td>\n",
       "      <td>None</td>\n",
       "      <td>1015.0</td>\n",
       "      <td>None</td>\n",
       "    </tr>\n",
       "    <tr>\n",
       "      <th>18</th>\n",
       "      <td>1654106400000</td>\n",
       "      <td>METAR SBBR 011800Z 06004KT CAVOK 28/09 Q1017</td>\n",
       "      <td>SBBR</td>\n",
       "      <td>28.0</td>\n",
       "      <td>25.0</td>\n",
       "      <td>110 degrees</td>\n",
       "      <td>10000.0</td>\n",
       "      <td>9.0</td>\n",
       "      <td>None</td>\n",
       "      <td>1015.0</td>\n",
       "      <td>None</td>\n",
       "    </tr>\n",
       "    <tr>\n",
       "      <th>19</th>\n",
       "      <td>1654110000000</td>\n",
       "      <td>METAR SBBR 011900Z 11003KT CAVOK 28/09 Q1016</td>\n",
       "      <td>SBBR</td>\n",
       "      <td>28.0</td>\n",
       "      <td>25.0</td>\n",
       "      <td>110 degrees</td>\n",
       "      <td>10000.0</td>\n",
       "      <td>9.0</td>\n",
       "      <td>None</td>\n",
       "      <td>1015.0</td>\n",
       "      <td>None</td>\n",
       "    </tr>\n",
       "    <tr>\n",
       "      <th>20</th>\n",
       "      <td>1654113600000</td>\n",
       "      <td>METAR SBBR 012000Z 07006KT 010V110 CAVOK 27/10 Q1016</td>\n",
       "      <td>SBBR</td>\n",
       "      <td>28.0</td>\n",
       "      <td>25.0</td>\n",
       "      <td>110 degrees</td>\n",
       "      <td>10000.0</td>\n",
       "      <td>9.0</td>\n",
       "      <td>None</td>\n",
       "      <td>1015.0</td>\n",
       "      <td>None</td>\n",
       "    </tr>\n",
       "    <tr>\n",
       "      <th>21</th>\n",
       "      <td>1654117200000</td>\n",
       "      <td>METAR SBBR 012100Z 11007KT CAVOK 26/09 Q1017</td>\n",
       "      <td>SBBR</td>\n",
       "      <td>28.0</td>\n",
       "      <td>25.0</td>\n",
       "      <td>110 degrees</td>\n",
       "      <td>10000.0</td>\n",
       "      <td>9.0</td>\n",
       "      <td>None</td>\n",
       "      <td>1015.0</td>\n",
       "      <td>None</td>\n",
       "    </tr>\n",
       "    <tr>\n",
       "      <th>22</th>\n",
       "      <td>1654120800000</td>\n",
       "      <td>METAR SBBR 012200Z 12007KT CAVOK 25/09 Q1017</td>\n",
       "      <td>SBBR</td>\n",
       "      <td>28.0</td>\n",
       "      <td>25.0</td>\n",
       "      <td>110 degrees</td>\n",
       "      <td>10000.0</td>\n",
       "      <td>9.0</td>\n",
       "      <td>None</td>\n",
       "      <td>1015.0</td>\n",
       "      <td>None</td>\n",
       "    </tr>\n",
       "    <tr>\n",
       "      <th>23</th>\n",
       "      <td>1654124400000</td>\n",
       "      <td>METAR SBBR 012300Z 05002KT CAVOK 22/10 Q1018</td>\n",
       "      <td>SBBR</td>\n",
       "      <td>28.0</td>\n",
       "      <td>25.0</td>\n",
       "      <td>110 degrees</td>\n",
       "      <td>10000.0</td>\n",
       "      <td>9.0</td>\n",
       "      <td>None</td>\n",
       "      <td>1015.0</td>\n",
       "      <td>None</td>\n",
       "    </tr>\n",
       "    <tr>\n",
       "      <th>24</th>\n",
       "      <td>1654128000000</td>\n",
       "      <td>METAR SBBR 020000Z 09002KT CAVOK 22/10 Q1019</td>\n",
       "      <td>SBBR</td>\n",
       "      <td>28.0</td>\n",
       "      <td>25.0</td>\n",
       "      <td>110 degrees</td>\n",
       "      <td>10000.0</td>\n",
       "      <td>9.0</td>\n",
       "      <td>None</td>\n",
       "      <td>1015.0</td>\n",
       "      <td>None</td>\n",
       "    </tr>\n",
       "    <tr>\n",
       "      <th>25</th>\n",
       "      <td>1654131600000</td>\n",
       "      <td>METAR SBBR 020100Z VRB01KT CAVOK 20/10 Q1019</td>\n",
       "      <td>SBBR</td>\n",
       "      <td>28.0</td>\n",
       "      <td>25.0</td>\n",
       "      <td>110 degrees</td>\n",
       "      <td>10000.0</td>\n",
       "      <td>9.0</td>\n",
       "      <td>None</td>\n",
       "      <td>1015.0</td>\n",
       "      <td>None</td>\n",
       "    </tr>\n",
       "    <tr>\n",
       "      <th>26</th>\n",
       "      <td>1654135200000</td>\n",
       "      <td>METAR SBBR 020200Z 29001KT CAVOK 17/10 Q1019</td>\n",
       "      <td>SBBR</td>\n",
       "      <td>28.0</td>\n",
       "      <td>25.0</td>\n",
       "      <td>110 degrees</td>\n",
       "      <td>10000.0</td>\n",
       "      <td>9.0</td>\n",
       "      <td>None</td>\n",
       "      <td>1015.0</td>\n",
       "      <td>None</td>\n",
       "    </tr>\n",
       "    <tr>\n",
       "      <th>27</th>\n",
       "      <td>1654138800000</td>\n",
       "      <td>METAR SBBR 020300Z 00000KT CAVOK 17/10 Q1019</td>\n",
       "      <td>SBBR</td>\n",
       "      <td>28.0</td>\n",
       "      <td>25.0</td>\n",
       "      <td>110 degrees</td>\n",
       "      <td>10000.0</td>\n",
       "      <td>9.0</td>\n",
       "      <td>None</td>\n",
       "      <td>1015.0</td>\n",
       "      <td>None</td>\n",
       "    </tr>\n",
       "    <tr>\n",
       "      <th>28</th>\n",
       "      <td>1654142400000</td>\n",
       "      <td>METAR SBBR 020400Z 27002KT CAVOK 15/10 Q1019</td>\n",
       "      <td>SBBR</td>\n",
       "      <td>28.0</td>\n",
       "      <td>25.0</td>\n",
       "      <td>110 degrees</td>\n",
       "      <td>10000.0</td>\n",
       "      <td>9.0</td>\n",
       "      <td>None</td>\n",
       "      <td>1015.0</td>\n",
       "      <td>None</td>\n",
       "    </tr>\n",
       "    <tr>\n",
       "      <th>29</th>\n",
       "      <td>1654146000000</td>\n",
       "      <td>METAR SBBR 020500Z 00000KT CAVOK 14/10 Q1019</td>\n",
       "      <td>SBBR</td>\n",
       "      <td>28.0</td>\n",
       "      <td>25.0</td>\n",
       "      <td>110 degrees</td>\n",
       "      <td>10000.0</td>\n",
       "      <td>9.0</td>\n",
       "      <td>None</td>\n",
       "      <td>1015.0</td>\n",
       "      <td>None</td>\n",
       "    </tr>\n",
       "    <tr>\n",
       "      <th>30</th>\n",
       "      <td>1654149600000</td>\n",
       "      <td>METAR SBBR 020600Z 28002KT CAVOK 15/10 Q1018</td>\n",
       "      <td>SBBR</td>\n",
       "      <td>28.0</td>\n",
       "      <td>25.0</td>\n",
       "      <td>110 degrees</td>\n",
       "      <td>10000.0</td>\n",
       "      <td>9.0</td>\n",
       "      <td>None</td>\n",
       "      <td>1015.0</td>\n",
       "      <td>None</td>\n",
       "    </tr>\n",
       "    <tr>\n",
       "      <th>31</th>\n",
       "      <td>1654153200000</td>\n",
       "      <td>METAR SBBR 020700Z 24002KT CAVOK 14/10 Q1018</td>\n",
       "      <td>SBBR</td>\n",
       "      <td>28.0</td>\n",
       "      <td>25.0</td>\n",
       "      <td>110 degrees</td>\n",
       "      <td>10000.0</td>\n",
       "      <td>9.0</td>\n",
       "      <td>None</td>\n",
       "      <td>1015.0</td>\n",
       "      <td>None</td>\n",
       "    </tr>\n",
       "    <tr>\n",
       "      <th>32</th>\n",
       "      <td>1654156800000</td>\n",
       "      <td>METAR SBBR 020800Z 27002KT CAVOK 13/10 Q1018</td>\n",
       "      <td>SBBR</td>\n",
       "      <td>28.0</td>\n",
       "      <td>25.0</td>\n",
       "      <td>110 degrees</td>\n",
       "      <td>10000.0</td>\n",
       "      <td>9.0</td>\n",
       "      <td>None</td>\n",
       "      <td>1015.0</td>\n",
       "      <td>None</td>\n",
       "    </tr>\n",
       "    <tr>\n",
       "      <th>33</th>\n",
       "      <td>1654160400000</td>\n",
       "      <td>METAR SBBR 020900Z 26003KT CAVOK 13/10 Q1019</td>\n",
       "      <td>SBBR</td>\n",
       "      <td>28.0</td>\n",
       "      <td>25.0</td>\n",
       "      <td>110 degrees</td>\n",
       "      <td>10000.0</td>\n",
       "      <td>9.0</td>\n",
       "      <td>None</td>\n",
       "      <td>1015.0</td>\n",
       "      <td>None</td>\n",
       "    </tr>\n",
       "    <tr>\n",
       "      <th>34</th>\n",
       "      <td>1654164000000</td>\n",
       "      <td>METAR SBBR 021000Z 28002KT CAVOK 14/10 Q1020</td>\n",
       "      <td>SBBR</td>\n",
       "      <td>28.0</td>\n",
       "      <td>25.0</td>\n",
       "      <td>110 degrees</td>\n",
       "      <td>10000.0</td>\n",
       "      <td>9.0</td>\n",
       "      <td>None</td>\n",
       "      <td>1015.0</td>\n",
       "      <td>None</td>\n",
       "    </tr>\n",
       "    <tr>\n",
       "      <th>35</th>\n",
       "      <td>1654167600000</td>\n",
       "      <td>METAR SBBR 021100Z 28002KT CAVOK 16/11 Q1020</td>\n",
       "      <td>SBBR</td>\n",
       "      <td>28.0</td>\n",
       "      <td>25.0</td>\n",
       "      <td>110 degrees</td>\n",
       "      <td>10000.0</td>\n",
       "      <td>9.0</td>\n",
       "      <td>None</td>\n",
       "      <td>1015.0</td>\n",
       "      <td>None</td>\n",
       "    </tr>\n",
       "    <tr>\n",
       "      <th>36</th>\n",
       "      <td>1654171200000</td>\n",
       "      <td>METAR SBBR 021200Z VRB01KT CAVOK 21/11 Q1021</td>\n",
       "      <td>SBBR</td>\n",
       "      <td>28.0</td>\n",
       "      <td>25.0</td>\n",
       "      <td>110 degrees</td>\n",
       "      <td>10000.0</td>\n",
       "      <td>9.0</td>\n",
       "      <td>None</td>\n",
       "      <td>1015.0</td>\n",
       "      <td>None</td>\n",
       "    </tr>\n",
       "    <tr>\n",
       "      <th>37</th>\n",
       "      <td>1654174800000</td>\n",
       "      <td>METAR SBBR 021300Z 07006KT 030V090 CAVOK 23/11 Q1021</td>\n",
       "      <td>SBBR</td>\n",
       "      <td>28.0</td>\n",
       "      <td>25.0</td>\n",
       "      <td>110 degrees</td>\n",
       "      <td>10000.0</td>\n",
       "      <td>9.0</td>\n",
       "      <td>None</td>\n",
       "      <td>1015.0</td>\n",
       "      <td>None</td>\n",
       "    </tr>\n",
       "    <tr>\n",
       "      <th>38</th>\n",
       "      <td>1654178400000</td>\n",
       "      <td>METAR SBBR 021400Z 07004KT 010V120 CAVOK 25/12 Q1021</td>\n",
       "      <td>SBBR</td>\n",
       "      <td>28.0</td>\n",
       "      <td>25.0</td>\n",
       "      <td>110 degrees</td>\n",
       "      <td>10000.0</td>\n",
       "      <td>9.0</td>\n",
       "      <td>None</td>\n",
       "      <td>1015.0</td>\n",
       "      <td>None</td>\n",
       "    </tr>\n",
       "    <tr>\n",
       "      <th>39</th>\n",
       "      <td>1654182000000</td>\n",
       "      <td>METAR SBBR 021500Z 35004KT 290V090 CAVOK 27/11 Q1020</td>\n",
       "      <td>SBBR</td>\n",
       "      <td>28.0</td>\n",
       "      <td>25.0</td>\n",
       "      <td>110 degrees</td>\n",
       "      <td>10000.0</td>\n",
       "      <td>9.0</td>\n",
       "      <td>None</td>\n",
       "      <td>1015.0</td>\n",
       "      <td>None</td>\n",
       "    </tr>\n",
       "    <tr>\n",
       "      <th>40</th>\n",
       "      <td>1654185600000</td>\n",
       "      <td>METAR SBBR 021600Z 30005KT CAVOK 28/09 Q1019</td>\n",
       "      <td>SBBR</td>\n",
       "      <td>28.0</td>\n",
       "      <td>25.0</td>\n",
       "      <td>110 degrees</td>\n",
       "      <td>10000.0</td>\n",
       "      <td>9.0</td>\n",
       "      <td>None</td>\n",
       "      <td>1015.0</td>\n",
       "      <td>None</td>\n",
       "    </tr>\n",
       "    <tr>\n",
       "      <th>41</th>\n",
       "      <td>1654189200000</td>\n",
       "      <td>METAR SBBR 021700Z 19006KT 130V230 9999 FEW040 28/10 Q1018</td>\n",
       "      <td>SBBR</td>\n",
       "      <td>28.0</td>\n",
       "      <td>25.0</td>\n",
       "      <td>110 degrees</td>\n",
       "      <td>10000.0</td>\n",
       "      <td>9.0</td>\n",
       "      <td>None</td>\n",
       "      <td>1015.0</td>\n",
       "      <td>None</td>\n",
       "    </tr>\n",
       "    <tr>\n",
       "      <th>42</th>\n",
       "      <td>1654192800000</td>\n",
       "      <td>METAR SBBR 021800Z VRB01KT 9999 FEW045 29/10 Q1018</td>\n",
       "      <td>SBBR</td>\n",
       "      <td>28.0</td>\n",
       "      <td>25.0</td>\n",
       "      <td>110 degrees</td>\n",
       "      <td>10000.0</td>\n",
       "      <td>9.0</td>\n",
       "      <td>None</td>\n",
       "      <td>1015.0</td>\n",
       "      <td>None</td>\n",
       "    </tr>\n",
       "    <tr>\n",
       "      <th>43</th>\n",
       "      <td>1654196400000</td>\n",
       "      <td>METAR SBBR 021900Z 17005KT 130V210 CAVOK 29/11 Q1017</td>\n",
       "      <td>SBBR</td>\n",
       "      <td>28.0</td>\n",
       "      <td>25.0</td>\n",
       "      <td>110 degrees</td>\n",
       "      <td>10000.0</td>\n",
       "      <td>9.0</td>\n",
       "      <td>None</td>\n",
       "      <td>1015.0</td>\n",
       "      <td>None</td>\n",
       "    </tr>\n",
       "    <tr>\n",
       "      <th>44</th>\n",
       "      <td>1654200000000</td>\n",
       "      <td>METAR SBBR 022000Z 17008KT CAVOK 28/11 Q1017</td>\n",
       "      <td>SBBR</td>\n",
       "      <td>28.0</td>\n",
       "      <td>25.0</td>\n",
       "      <td>110 degrees</td>\n",
       "      <td>10000.0</td>\n",
       "      <td>9.0</td>\n",
       "      <td>None</td>\n",
       "      <td>1015.0</td>\n",
       "      <td>None</td>\n",
       "    </tr>\n",
       "    <tr>\n",
       "      <th>45</th>\n",
       "      <td>1654203600000</td>\n",
       "      <td>METAR SBBR 022100Z 18006KT 150V210 CAVOK 26/11 Q1018</td>\n",
       "      <td>SBBR</td>\n",
       "      <td>28.0</td>\n",
       "      <td>25.0</td>\n",
       "      <td>110 degrees</td>\n",
       "      <td>10000.0</td>\n",
       "      <td>9.0</td>\n",
       "      <td>None</td>\n",
       "      <td>1015.0</td>\n",
       "      <td>None</td>\n",
       "    </tr>\n",
       "    <tr>\n",
       "      <th>46</th>\n",
       "      <td>1654207200000</td>\n",
       "      <td>METAR SBBR 022200Z 19004KT CAVOK 24/11 Q1019</td>\n",
       "      <td>SBBR</td>\n",
       "      <td>28.0</td>\n",
       "      <td>25.0</td>\n",
       "      <td>110 degrees</td>\n",
       "      <td>10000.0</td>\n",
       "      <td>9.0</td>\n",
       "      <td>None</td>\n",
       "      <td>1015.0</td>\n",
       "      <td>None</td>\n",
       "    </tr>\n",
       "    <tr>\n",
       "      <th>47</th>\n",
       "      <td>1654210800000</td>\n",
       "      <td>METAR SBBR 022300Z 19003KT CAVOK 22/10 Q1019</td>\n",
       "      <td>SBBR</td>\n",
       "      <td>28.0</td>\n",
       "      <td>25.0</td>\n",
       "      <td>110 degrees</td>\n",
       "      <td>10000.0</td>\n",
       "      <td>9.0</td>\n",
       "      <td>None</td>\n",
       "      <td>1015.0</td>\n",
       "      <td>None</td>\n",
       "    </tr>\n",
       "    <tr>\n",
       "      <th>48</th>\n",
       "      <td>1654214400000</td>\n",
       "      <td>METAR SBBR 030000Z 23002KT CAVOK 20/10 Q1020</td>\n",
       "      <td>SBBR</td>\n",
       "      <td>28.0</td>\n",
       "      <td>25.0</td>\n",
       "      <td>110 degrees</td>\n",
       "      <td>10000.0</td>\n",
       "      <td>9.0</td>\n",
       "      <td>None</td>\n",
       "      <td>1015.0</td>\n",
       "      <td>None</td>\n",
       "    </tr>\n",
       "    <tr>\n",
       "      <th>49</th>\n",
       "      <td>1654218000000</td>\n",
       "      <td>METAR SBBR 030100Z 01002KT CAVOK 19/11 Q1020</td>\n",
       "      <td>SBBR</td>\n",
       "      <td>28.0</td>\n",
       "      <td>25.0</td>\n",
       "      <td>110 degrees</td>\n",
       "      <td>10000.0</td>\n",
       "      <td>9.0</td>\n",
       "      <td>None</td>\n",
       "      <td>1015.0</td>\n",
       "      <td>None</td>\n",
       "    </tr>\n",
       "    <tr>\n",
       "      <th>50</th>\n",
       "      <td>1654221600000</td>\n",
       "      <td>METAR SBBR 030200Z VRB02KT CAVOK 20/10 Q1020</td>\n",
       "      <td>SBBR</td>\n",
       "      <td>28.0</td>\n",
       "      <td>25.0</td>\n",
       "      <td>110 degrees</td>\n",
       "      <td>10000.0</td>\n",
       "      <td>9.0</td>\n",
       "      <td>None</td>\n",
       "      <td>1015.0</td>\n",
       "      <td>None</td>\n",
       "    </tr>\n",
       "    <tr>\n",
       "      <th>51</th>\n",
       "      <td>1654225200000</td>\n",
       "      <td>METAR SBBR 030300Z 30003KT CAVOK 16/11 Q1021</td>\n",
       "      <td>SBBR</td>\n",
       "      <td>28.0</td>\n",
       "      <td>25.0</td>\n",
       "      <td>110 degrees</td>\n",
       "      <td>10000.0</td>\n",
       "      <td>9.0</td>\n",
       "      <td>None</td>\n",
       "      <td>1015.0</td>\n",
       "      <td>None</td>\n",
       "    </tr>\n",
       "    <tr>\n",
       "      <th>52</th>\n",
       "      <td>1654228800000</td>\n",
       "      <td>METAR SBBR 030400Z 25002KT CAVOK 16/11 Q1021</td>\n",
       "      <td>SBBR</td>\n",
       "      <td>28.0</td>\n",
       "      <td>25.0</td>\n",
       "      <td>110 degrees</td>\n",
       "      <td>10000.0</td>\n",
       "      <td>9.0</td>\n",
       "      <td>None</td>\n",
       "      <td>1015.0</td>\n",
       "      <td>None</td>\n",
       "    </tr>\n",
       "    <tr>\n",
       "      <th>53</th>\n",
       "      <td>1654232400000</td>\n",
       "      <td>METAR SBBR 030500Z 30002KT CAVOK 15/11 Q1021</td>\n",
       "      <td>SBBR</td>\n",
       "      <td>28.0</td>\n",
       "      <td>25.0</td>\n",
       "      <td>110 degrees</td>\n",
       "      <td>10000.0</td>\n",
       "      <td>9.0</td>\n",
       "      <td>None</td>\n",
       "      <td>1015.0</td>\n",
       "      <td>None</td>\n",
       "    </tr>\n",
       "    <tr>\n",
       "      <th>54</th>\n",
       "      <td>1654236000000</td>\n",
       "      <td>METAR SBBR 030600Z VRB01KT CAVOK 14/11 Q1020</td>\n",
       "      <td>SBBR</td>\n",
       "      <td>28.0</td>\n",
       "      <td>25.0</td>\n",
       "      <td>110 degrees</td>\n",
       "      <td>10000.0</td>\n",
       "      <td>9.0</td>\n",
       "      <td>None</td>\n",
       "      <td>1015.0</td>\n",
       "      <td>None</td>\n",
       "    </tr>\n",
       "    <tr>\n",
       "      <th>55</th>\n",
       "      <td>1654239600000</td>\n",
       "      <td>METAR SBBR 030700Z 22002KT CAVOK 15/11 Q1020</td>\n",
       "      <td>SBBR</td>\n",
       "      <td>28.0</td>\n",
       "      <td>25.0</td>\n",
       "      <td>110 degrees</td>\n",
       "      <td>10000.0</td>\n",
       "      <td>9.0</td>\n",
       "      <td>None</td>\n",
       "      <td>1015.0</td>\n",
       "      <td>None</td>\n",
       "    </tr>\n",
       "    <tr>\n",
       "      <th>56</th>\n",
       "      <td>1654243200000</td>\n",
       "      <td>METAR SBBR 030800Z 27002KT CAVOK 14/11 Q1020</td>\n",
       "      <td>SBBR</td>\n",
       "      <td>28.0</td>\n",
       "      <td>25.0</td>\n",
       "      <td>110 degrees</td>\n",
       "      <td>10000.0</td>\n",
       "      <td>9.0</td>\n",
       "      <td>None</td>\n",
       "      <td>1015.0</td>\n",
       "      <td>None</td>\n",
       "    </tr>\n",
       "    <tr>\n",
       "      <th>57</th>\n",
       "      <td>1654246800000</td>\n",
       "      <td>METAR SBBR 030900Z 00000KT CAVOK 14/10 Q1021</td>\n",
       "      <td>SBBR</td>\n",
       "      <td>28.0</td>\n",
       "      <td>25.0</td>\n",
       "      <td>110 degrees</td>\n",
       "      <td>10000.0</td>\n",
       "      <td>9.0</td>\n",
       "      <td>None</td>\n",
       "      <td>1015.0</td>\n",
       "      <td>None</td>\n",
       "    </tr>\n",
       "    <tr>\n",
       "      <th>58</th>\n",
       "      <td>1654250400000</td>\n",
       "      <td>METAR SBBR 031000Z 34001KT CAVOK 13/10 Q1021</td>\n",
       "      <td>SBBR</td>\n",
       "      <td>28.0</td>\n",
       "      <td>25.0</td>\n",
       "      <td>110 degrees</td>\n",
       "      <td>10000.0</td>\n",
       "      <td>9.0</td>\n",
       "      <td>None</td>\n",
       "      <td>1015.0</td>\n",
       "      <td>None</td>\n",
       "    </tr>\n",
       "    <tr>\n",
       "      <th>59</th>\n",
       "      <td>1654254000000</td>\n",
       "      <td>METAR SBBR 031100Z 00000KT CAVOK 16/11 Q1022</td>\n",
       "      <td>SBBR</td>\n",
       "      <td>28.0</td>\n",
       "      <td>25.0</td>\n",
       "      <td>110 degrees</td>\n",
       "      <td>10000.0</td>\n",
       "      <td>9.0</td>\n",
       "      <td>None</td>\n",
       "      <td>1015.0</td>\n",
       "      <td>None</td>\n",
       "    </tr>\n",
       "    <tr>\n",
       "      <th>60</th>\n",
       "      <td>1654257600000</td>\n",
       "      <td>METAR SBBR 031200Z VRB02KT CAVOK 20/12 Q1022</td>\n",
       "      <td>SBBR</td>\n",
       "      <td>28.0</td>\n",
       "      <td>25.0</td>\n",
       "      <td>110 degrees</td>\n",
       "      <td>10000.0</td>\n",
       "      <td>9.0</td>\n",
       "      <td>None</td>\n",
       "      <td>1015.0</td>\n",
       "      <td>None</td>\n",
       "    </tr>\n",
       "    <tr>\n",
       "      <th>61</th>\n",
       "      <td>1654261200000</td>\n",
       "      <td>METAR SBBR 031300Z VRB02KT CAVOK 24/12 Q1022</td>\n",
       "      <td>SBBR</td>\n",
       "      <td>28.0</td>\n",
       "      <td>25.0</td>\n",
       "      <td>110 degrees</td>\n",
       "      <td>10000.0</td>\n",
       "      <td>9.0</td>\n",
       "      <td>None</td>\n",
       "      <td>1015.0</td>\n",
       "      <td>None</td>\n",
       "    </tr>\n",
       "    <tr>\n",
       "      <th>62</th>\n",
       "      <td>1654264800000</td>\n",
       "      <td>METAR SBBR 031400Z 12013KT CAVOK 26/10 Q1022</td>\n",
       "      <td>SBBR</td>\n",
       "      <td>28.0</td>\n",
       "      <td>25.0</td>\n",
       "      <td>110 degrees</td>\n",
       "      <td>10000.0</td>\n",
       "      <td>9.0</td>\n",
       "      <td>None</td>\n",
       "      <td>1015.0</td>\n",
       "      <td>None</td>\n",
       "    </tr>\n",
       "    <tr>\n",
       "      <th>63</th>\n",
       "      <td>1654268400000</td>\n",
       "      <td>METAR SBBR 031500Z 15010KT 120V200 CAVOK 27/11 Q1021</td>\n",
       "      <td>SBBR</td>\n",
       "      <td>28.0</td>\n",
       "      <td>25.0</td>\n",
       "      <td>110 degrees</td>\n",
       "      <td>10000.0</td>\n",
       "      <td>9.0</td>\n",
       "      <td>None</td>\n",
       "      <td>1015.0</td>\n",
       "      <td>None</td>\n",
       "    </tr>\n",
       "    <tr>\n",
       "      <th>64</th>\n",
       "      <td>1654272000000</td>\n",
       "      <td>METAR SBBR 031600Z 12011KT CAVOK 27/09 Q1020</td>\n",
       "      <td>SBBR</td>\n",
       "      <td>28.0</td>\n",
       "      <td>25.0</td>\n",
       "      <td>110 degrees</td>\n",
       "      <td>10000.0</td>\n",
       "      <td>9.0</td>\n",
       "      <td>None</td>\n",
       "      <td>1015.0</td>\n",
       "      <td>None</td>\n",
       "    </tr>\n",
       "    <tr>\n",
       "      <th>65</th>\n",
       "      <td>1654275600000</td>\n",
       "      <td>METAR SBBR 031700Z 16011KT 100V210 CAVOK 28/09 Q1020</td>\n",
       "      <td>SBBR</td>\n",
       "      <td>28.0</td>\n",
       "      <td>25.0</td>\n",
       "      <td>110 degrees</td>\n",
       "      <td>10000.0</td>\n",
       "      <td>9.0</td>\n",
       "      <td>None</td>\n",
       "      <td>1015.0</td>\n",
       "      <td>None</td>\n",
       "    </tr>\n",
       "    <tr>\n",
       "      <th>66</th>\n",
       "      <td>1654279200000</td>\n",
       "      <td>METAR SBBR 031800Z 15008KT CAVOK 28/09 Q1019</td>\n",
       "      <td>SBBR</td>\n",
       "      <td>28.0</td>\n",
       "      <td>25.0</td>\n",
       "      <td>110 degrees</td>\n",
       "      <td>10000.0</td>\n",
       "      <td>9.0</td>\n",
       "      <td>None</td>\n",
       "      <td>1015.0</td>\n",
       "      <td>None</td>\n",
       "    </tr>\n",
       "    <tr>\n",
       "      <th>67</th>\n",
       "      <td>1654282800000</td>\n",
       "      <td>METAR SBBR 031900Z 12009KT CAVOK 28/09 Q1019</td>\n",
       "      <td>SBBR</td>\n",
       "      <td>28.0</td>\n",
       "      <td>25.0</td>\n",
       "      <td>110 degrees</td>\n",
       "      <td>10000.0</td>\n",
       "      <td>9.0</td>\n",
       "      <td>None</td>\n",
       "      <td>1015.0</td>\n",
       "      <td>None</td>\n",
       "    </tr>\n",
       "    <tr>\n",
       "      <th>68</th>\n",
       "      <td>1654286400000</td>\n",
       "      <td>METAR SBBR 032000Z 12009KT CAVOK 27/10 Q1019</td>\n",
       "      <td>SBBR</td>\n",
       "      <td>28.0</td>\n",
       "      <td>25.0</td>\n",
       "      <td>110 degrees</td>\n",
       "      <td>10000.0</td>\n",
       "      <td>9.0</td>\n",
       "      <td>None</td>\n",
       "      <td>1015.0</td>\n",
       "      <td>None</td>\n",
       "    </tr>\n",
       "    <tr>\n",
       "      <th>69</th>\n",
       "      <td>1654290000000</td>\n",
       "      <td>METAR SBBR 032100Z 13007KT CAVOK 25/10 Q1019</td>\n",
       "      <td>SBBR</td>\n",
       "      <td>28.0</td>\n",
       "      <td>25.0</td>\n",
       "      <td>110 degrees</td>\n",
       "      <td>10000.0</td>\n",
       "      <td>9.0</td>\n",
       "      <td>None</td>\n",
       "      <td>1015.0</td>\n",
       "      <td>None</td>\n",
       "    </tr>\n",
       "    <tr>\n",
       "      <th>70</th>\n",
       "      <td>1654293600000</td>\n",
       "      <td>METAR SBBR 032200Z 14005KT CAVOK 24/10 Q1019</td>\n",
       "      <td>SBBR</td>\n",
       "      <td>28.0</td>\n",
       "      <td>25.0</td>\n",
       "      <td>110 degrees</td>\n",
       "      <td>10000.0</td>\n",
       "      <td>9.0</td>\n",
       "      <td>None</td>\n",
       "      <td>1015.0</td>\n",
       "      <td>None</td>\n",
       "    </tr>\n",
       "    <tr>\n",
       "      <th>71</th>\n",
       "      <td>1654297200000</td>\n",
       "      <td>METAR SBBR 032300Z 15004KT CAVOK 22/09 Q1020</td>\n",
       "      <td>SBBR</td>\n",
       "      <td>28.0</td>\n",
       "      <td>25.0</td>\n",
       "      <td>110 degrees</td>\n",
       "      <td>10000.0</td>\n",
       "      <td>9.0</td>\n",
       "      <td>None</td>\n",
       "      <td>1015.0</td>\n",
       "      <td>None</td>\n",
       "    </tr>\n",
       "    <tr>\n",
       "      <th>72</th>\n",
       "      <td>1654300800000</td>\n",
       "      <td>METAR SBBR 040000Z 18003KT CAVOK 21/09 Q1020</td>\n",
       "      <td>SBBR</td>\n",
       "      <td>28.0</td>\n",
       "      <td>25.0</td>\n",
       "      <td>110 degrees</td>\n",
       "      <td>10000.0</td>\n",
       "      <td>9.0</td>\n",
       "      <td>None</td>\n",
       "      <td>1015.0</td>\n",
       "      <td>None</td>\n",
       "    </tr>\n",
       "    <tr>\n",
       "      <th>73</th>\n",
       "      <td>1654304400000</td>\n",
       "      <td>METAR SBBR 040100Z 28002KT CAVOK 18/10 Q1021</td>\n",
       "      <td>SBBR</td>\n",
       "      <td>28.0</td>\n",
       "      <td>25.0</td>\n",
       "      <td>110 degrees</td>\n",
       "      <td>10000.0</td>\n",
       "      <td>9.0</td>\n",
       "      <td>None</td>\n",
       "      <td>1015.0</td>\n",
       "      <td>None</td>\n",
       "    </tr>\n",
       "    <tr>\n",
       "      <th>74</th>\n",
       "      <td>1654308000000</td>\n",
       "      <td>METAR SBBR 040200Z 29002KT CAVOK 18/09 Q1021</td>\n",
       "      <td>SBBR</td>\n",
       "      <td>28.0</td>\n",
       "      <td>25.0</td>\n",
       "      <td>110 degrees</td>\n",
       "      <td>10000.0</td>\n",
       "      <td>9.0</td>\n",
       "      <td>None</td>\n",
       "      <td>1015.0</td>\n",
       "      <td>None</td>\n",
       "    </tr>\n",
       "    <tr>\n",
       "      <th>75</th>\n",
       "      <td>1654311600000</td>\n",
       "      <td>METAR SBBR 040300Z 25002KT CAVOK 17/09 Q1020</td>\n",
       "      <td>SBBR</td>\n",
       "      <td>28.0</td>\n",
       "      <td>25.0</td>\n",
       "      <td>110 degrees</td>\n",
       "      <td>10000.0</td>\n",
       "      <td>9.0</td>\n",
       "      <td>None</td>\n",
       "      <td>1015.0</td>\n",
       "      <td>None</td>\n",
       "    </tr>\n",
       "    <tr>\n",
       "      <th>76</th>\n",
       "      <td>1654315200000</td>\n",
       "      <td>METAR SBBR 040400Z VRB01KT CAVOK 16/10 Q1020</td>\n",
       "      <td>SBBR</td>\n",
       "      <td>28.0</td>\n",
       "      <td>25.0</td>\n",
       "      <td>110 degrees</td>\n",
       "      <td>10000.0</td>\n",
       "      <td>9.0</td>\n",
       "      <td>None</td>\n",
       "      <td>1015.0</td>\n",
       "      <td>None</td>\n",
       "    </tr>\n",
       "    <tr>\n",
       "      <th>77</th>\n",
       "      <td>1654318800000</td>\n",
       "      <td>METAR SBBR 040500Z 28003KT CAVOK 14/10 Q1020</td>\n",
       "      <td>SBBR</td>\n",
       "      <td>28.0</td>\n",
       "      <td>25.0</td>\n",
       "      <td>110 degrees</td>\n",
       "      <td>10000.0</td>\n",
       "      <td>9.0</td>\n",
       "      <td>None</td>\n",
       "      <td>1015.0</td>\n",
       "      <td>None</td>\n",
       "    </tr>\n",
       "    <tr>\n",
       "      <th>78</th>\n",
       "      <td>1654322400000</td>\n",
       "      <td>METAR SBBR 040600Z VRB01KT CAVOK 14/10 Q1019</td>\n",
       "      <td>SBBR</td>\n",
       "      <td>28.0</td>\n",
       "      <td>25.0</td>\n",
       "      <td>110 degrees</td>\n",
       "      <td>10000.0</td>\n",
       "      <td>9.0</td>\n",
       "      <td>None</td>\n",
       "      <td>1015.0</td>\n",
       "      <td>None</td>\n",
       "    </tr>\n",
       "    <tr>\n",
       "      <th>79</th>\n",
       "      <td>1654326000000</td>\n",
       "      <td>METAR SBBR 040700Z VRB02KT CAVOK 14/10 Q1019</td>\n",
       "      <td>SBBR</td>\n",
       "      <td>28.0</td>\n",
       "      <td>25.0</td>\n",
       "      <td>110 degrees</td>\n",
       "      <td>10000.0</td>\n",
       "      <td>9.0</td>\n",
       "      <td>None</td>\n",
       "      <td>1015.0</td>\n",
       "      <td>None</td>\n",
       "    </tr>\n",
       "    <tr>\n",
       "      <th>80</th>\n",
       "      <td>1654329600000</td>\n",
       "      <td>METAR SBBR 040800Z 03001KT CAVOK 14/10 Q1019</td>\n",
       "      <td>SBBR</td>\n",
       "      <td>28.0</td>\n",
       "      <td>25.0</td>\n",
       "      <td>110 degrees</td>\n",
       "      <td>10000.0</td>\n",
       "      <td>9.0</td>\n",
       "      <td>None</td>\n",
       "      <td>1015.0</td>\n",
       "      <td>None</td>\n",
       "    </tr>\n",
       "    <tr>\n",
       "      <th>81</th>\n",
       "      <td>1654333200000</td>\n",
       "      <td>METAR SBBR 040900Z VRB01KT CAVOK 14/09 Q1020</td>\n",
       "      <td>SBBR</td>\n",
       "      <td>28.0</td>\n",
       "      <td>25.0</td>\n",
       "      <td>110 degrees</td>\n",
       "      <td>10000.0</td>\n",
       "      <td>9.0</td>\n",
       "      <td>None</td>\n",
       "      <td>1015.0</td>\n",
       "      <td>None</td>\n",
       "    </tr>\n",
       "    <tr>\n",
       "      <th>82</th>\n",
       "      <td>1654336800000</td>\n",
       "      <td>METAR SBBR 041000Z 34001KT CAVOK 13/10 Q1020</td>\n",
       "      <td>SBBR</td>\n",
       "      <td>28.0</td>\n",
       "      <td>25.0</td>\n",
       "      <td>110 degrees</td>\n",
       "      <td>10000.0</td>\n",
       "      <td>9.0</td>\n",
       "      <td>None</td>\n",
       "      <td>1015.0</td>\n",
       "      <td>None</td>\n",
       "    </tr>\n",
       "    <tr>\n",
       "      <th>83</th>\n",
       "      <td>1654340400000</td>\n",
       "      <td>METAR SBBR 041100Z 03001KT CAVOK 16/12 Q1022</td>\n",
       "      <td>SBBR</td>\n",
       "      <td>28.0</td>\n",
       "      <td>25.0</td>\n",
       "      <td>110 degrees</td>\n",
       "      <td>10000.0</td>\n",
       "      <td>9.0</td>\n",
       "      <td>None</td>\n",
       "      <td>1015.0</td>\n",
       "      <td>None</td>\n",
       "    </tr>\n",
       "    <tr>\n",
       "      <th>84</th>\n",
       "      <td>1654344000000</td>\n",
       "      <td>METAR SBBR 041200Z 15002KT CAVOK 21/12 Q1022</td>\n",
       "      <td>SBBR</td>\n",
       "      <td>28.0</td>\n",
       "      <td>25.0</td>\n",
       "      <td>110 degrees</td>\n",
       "      <td>10000.0</td>\n",
       "      <td>9.0</td>\n",
       "      <td>None</td>\n",
       "      <td>1015.0</td>\n",
       "      <td>None</td>\n",
       "    </tr>\n",
       "    <tr>\n",
       "      <th>85</th>\n",
       "      <td>1654347600000</td>\n",
       "      <td>METAR SBBR 041300Z 13009KT CAVOK 23/12 Q1022</td>\n",
       "      <td>SBBR</td>\n",
       "      <td>28.0</td>\n",
       "      <td>25.0</td>\n",
       "      <td>110 degrees</td>\n",
       "      <td>10000.0</td>\n",
       "      <td>9.0</td>\n",
       "      <td>None</td>\n",
       "      <td>1015.0</td>\n",
       "      <td>None</td>\n",
       "    </tr>\n",
       "    <tr>\n",
       "      <th>86</th>\n",
       "      <td>1654351200000</td>\n",
       "      <td>METAR SBBR 041400Z 11013KT CAVOK 24/12 Q1022</td>\n",
       "      <td>SBBR</td>\n",
       "      <td>28.0</td>\n",
       "      <td>25.0</td>\n",
       "      <td>110 degrees</td>\n",
       "      <td>10000.0</td>\n",
       "      <td>9.0</td>\n",
       "      <td>None</td>\n",
       "      <td>1015.0</td>\n",
       "      <td>None</td>\n",
       "    </tr>\n",
       "    <tr>\n",
       "      <th>87</th>\n",
       "      <td>1654354800000</td>\n",
       "      <td>METAR SBBR 041500Z 09010KT 9999 FEW035 26/13 Q1021</td>\n",
       "      <td>SBBR</td>\n",
       "      <td>28.0</td>\n",
       "      <td>25.0</td>\n",
       "      <td>110 degrees</td>\n",
       "      <td>10000.0</td>\n",
       "      <td>9.0</td>\n",
       "      <td>None</td>\n",
       "      <td>1015.0</td>\n",
       "      <td>None</td>\n",
       "    </tr>\n",
       "    <tr>\n",
       "      <th>88</th>\n",
       "      <td>1654358400000</td>\n",
       "      <td>METAR SBBR 041600Z 10011KT 9999 FEW040 26/12 Q1021</td>\n",
       "      <td>SBBR</td>\n",
       "      <td>28.0</td>\n",
       "      <td>25.0</td>\n",
       "      <td>110 degrees</td>\n",
       "      <td>10000.0</td>\n",
       "      <td>9.0</td>\n",
       "      <td>None</td>\n",
       "      <td>1015.0</td>\n",
       "      <td>None</td>\n",
       "    </tr>\n",
       "    <tr>\n",
       "      <th>89</th>\n",
       "      <td>1654362000000</td>\n",
       "      <td>METAR SBBR 041700Z 10010KT 9999 FEW040 27/13 Q1020</td>\n",
       "      <td>SBBR</td>\n",
       "      <td>28.0</td>\n",
       "      <td>25.0</td>\n",
       "      <td>110 degrees</td>\n",
       "      <td>10000.0</td>\n",
       "      <td>9.0</td>\n",
       "      <td>None</td>\n",
       "      <td>1015.0</td>\n",
       "      <td>None</td>\n",
       "    </tr>\n",
       "    <tr>\n",
       "      <th>90</th>\n",
       "      <td>1654365600000</td>\n",
       "      <td>METAR SBBR 041800Z 11009KT 050V150 9999 SCT040 27/13 Q1020</td>\n",
       "      <td>SBBR</td>\n",
       "      <td>28.0</td>\n",
       "      <td>25.0</td>\n",
       "      <td>110 degrees</td>\n",
       "      <td>10000.0</td>\n",
       "      <td>9.0</td>\n",
       "      <td>None</td>\n",
       "      <td>1015.0</td>\n",
       "      <td>None</td>\n",
       "    </tr>\n",
       "    <tr>\n",
       "      <th>91</th>\n",
       "      <td>1654369200000</td>\n",
       "      <td>METAR SBBR 041900Z 10011KT 9999 SCT040 27/13 Q1019</td>\n",
       "      <td>SBBR</td>\n",
       "      <td>28.0</td>\n",
       "      <td>25.0</td>\n",
       "      <td>110 degrees</td>\n",
       "      <td>10000.0</td>\n",
       "      <td>9.0</td>\n",
       "      <td>None</td>\n",
       "      <td>1015.0</td>\n",
       "      <td>None</td>\n",
       "    </tr>\n",
       "    <tr>\n",
       "      <th>92</th>\n",
       "      <td>1654372800000</td>\n",
       "      <td>METAR SBBR 042000Z 12011KT 9999 FEW040 26/13 Q1019</td>\n",
       "      <td>SBBR</td>\n",
       "      <td>28.0</td>\n",
       "      <td>25.0</td>\n",
       "      <td>110 degrees</td>\n",
       "      <td>10000.0</td>\n",
       "      <td>9.0</td>\n",
       "      <td>None</td>\n",
       "      <td>1015.0</td>\n",
       "      <td>None</td>\n",
       "    </tr>\n",
       "    <tr>\n",
       "      <th>93</th>\n",
       "      <td>1654376400000</td>\n",
       "      <td>METAR SBBR 042100Z 12008KT CAVOK 24/13 Q1020</td>\n",
       "      <td>SBBR</td>\n",
       "      <td>28.0</td>\n",
       "      <td>25.0</td>\n",
       "      <td>110 degrees</td>\n",
       "      <td>10000.0</td>\n",
       "      <td>9.0</td>\n",
       "      <td>None</td>\n",
       "      <td>1015.0</td>\n",
       "      <td>None</td>\n",
       "    </tr>\n",
       "    <tr>\n",
       "      <th>94</th>\n",
       "      <td>1654380000000</td>\n",
       "      <td>METAR SBBR 042200Z 13007KT CAVOK 23/13 Q1020</td>\n",
       "      <td>SBBR</td>\n",
       "      <td>28.0</td>\n",
       "      <td>25.0</td>\n",
       "      <td>110 degrees</td>\n",
       "      <td>10000.0</td>\n",
       "      <td>9.0</td>\n",
       "      <td>None</td>\n",
       "      <td>1015.0</td>\n",
       "      <td>None</td>\n",
       "    </tr>\n",
       "    <tr>\n",
       "      <th>95</th>\n",
       "      <td>1654383600000</td>\n",
       "      <td>METAR SBBR 042300Z 12008KT CAVOK 22/13 Q1021</td>\n",
       "      <td>SBBR</td>\n",
       "      <td>28.0</td>\n",
       "      <td>25.0</td>\n",
       "      <td>110 degrees</td>\n",
       "      <td>10000.0</td>\n",
       "      <td>9.0</td>\n",
       "      <td>None</td>\n",
       "      <td>1015.0</td>\n",
       "      <td>None</td>\n",
       "    </tr>\n",
       "    <tr>\n",
       "      <th>96</th>\n",
       "      <td>1654387200000</td>\n",
       "      <td>METAR SBBR 050000Z 12008KT CAVOK 21/13 Q1021</td>\n",
       "      <td>SBBR</td>\n",
       "      <td>28.0</td>\n",
       "      <td>25.0</td>\n",
       "      <td>110 degrees</td>\n",
       "      <td>10000.0</td>\n",
       "      <td>9.0</td>\n",
       "      <td>None</td>\n",
       "      <td>1015.0</td>\n",
       "      <td>None</td>\n",
       "    </tr>\n",
       "    <tr>\n",
       "      <th>97</th>\n",
       "      <td>1654390800000</td>\n",
       "      <td>METAR SBBR 050100Z 11006KT 070V130 CAVOK 20/13 Q1021</td>\n",
       "      <td>SBBR</td>\n",
       "      <td>28.0</td>\n",
       "      <td>25.0</td>\n",
       "      <td>110 degrees</td>\n",
       "      <td>10000.0</td>\n",
       "      <td>9.0</td>\n",
       "      <td>None</td>\n",
       "      <td>1015.0</td>\n",
       "      <td>None</td>\n",
       "    </tr>\n",
       "    <tr>\n",
       "      <th>98</th>\n",
       "      <td>1654394400000</td>\n",
       "      <td>METAR SBBR 050200Z 03002KT CAVOK 18/13 Q1021</td>\n",
       "      <td>SBBR</td>\n",
       "      <td>28.0</td>\n",
       "      <td>25.0</td>\n",
       "      <td>110 degrees</td>\n",
       "      <td>10000.0</td>\n",
       "      <td>9.0</td>\n",
       "      <td>None</td>\n",
       "      <td>1015.0</td>\n",
       "      <td>None</td>\n",
       "    </tr>\n",
       "    <tr>\n",
       "      <th>99</th>\n",
       "      <td>1654398000000</td>\n",
       "      <td>METAR SBBR 050300Z 23002KT CAVOK 18/13 Q1021</td>\n",
       "      <td>SBBR</td>\n",
       "      <td>28.0</td>\n",
       "      <td>25.0</td>\n",
       "      <td>110 degrees</td>\n",
       "      <td>10000.0</td>\n",
       "      <td>9.0</td>\n",
       "      <td>None</td>\n",
       "      <td>1015.0</td>\n",
       "      <td>None</td>\n",
       "    </tr>\n",
       "  </tbody>\n",
       "</table>\n",
       "</div>"
      ],
      "text/plain": [
       "             hora  \\\n",
       "0   1654041600000   \n",
       "1   1654045200000   \n",
       "2   1654048800000   \n",
       "3   1654052400000   \n",
       "4   1654056000000   \n",
       "5   1654059600000   \n",
       "6   1654063200000   \n",
       "7   1654066800000   \n",
       "8   1654070400000   \n",
       "9   1654074000000   \n",
       "10  1654077600000   \n",
       "11  1654081200000   \n",
       "12  1654084800000   \n",
       "13  1654088400000   \n",
       "14  1654092000000   \n",
       "15  1654095600000   \n",
       "16  1654099200000   \n",
       "17  1654102800000   \n",
       "18  1654106400000   \n",
       "19  1654110000000   \n",
       "20  1654113600000   \n",
       "21  1654117200000   \n",
       "22  1654120800000   \n",
       "23  1654124400000   \n",
       "24  1654128000000   \n",
       "25  1654131600000   \n",
       "26  1654135200000   \n",
       "27  1654138800000   \n",
       "28  1654142400000   \n",
       "29  1654146000000   \n",
       "30  1654149600000   \n",
       "31  1654153200000   \n",
       "32  1654156800000   \n",
       "33  1654160400000   \n",
       "34  1654164000000   \n",
       "35  1654167600000   \n",
       "36  1654171200000   \n",
       "37  1654174800000   \n",
       "38  1654178400000   \n",
       "39  1654182000000   \n",
       "40  1654185600000   \n",
       "41  1654189200000   \n",
       "42  1654192800000   \n",
       "43  1654196400000   \n",
       "44  1654200000000   \n",
       "45  1654203600000   \n",
       "46  1654207200000   \n",
       "47  1654210800000   \n",
       "48  1654214400000   \n",
       "49  1654218000000   \n",
       "50  1654221600000   \n",
       "51  1654225200000   \n",
       "52  1654228800000   \n",
       "53  1654232400000   \n",
       "54  1654236000000   \n",
       "55  1654239600000   \n",
       "56  1654243200000   \n",
       "57  1654246800000   \n",
       "58  1654250400000   \n",
       "59  1654254000000   \n",
       "60  1654257600000   \n",
       "61  1654261200000   \n",
       "62  1654264800000   \n",
       "63  1654268400000   \n",
       "64  1654272000000   \n",
       "65  1654275600000   \n",
       "66  1654279200000   \n",
       "67  1654282800000   \n",
       "68  1654286400000   \n",
       "69  1654290000000   \n",
       "70  1654293600000   \n",
       "71  1654297200000   \n",
       "72  1654300800000   \n",
       "73  1654304400000   \n",
       "74  1654308000000   \n",
       "75  1654311600000   \n",
       "76  1654315200000   \n",
       "77  1654318800000   \n",
       "78  1654322400000   \n",
       "79  1654326000000   \n",
       "80  1654329600000   \n",
       "81  1654333200000   \n",
       "82  1654336800000   \n",
       "83  1654340400000   \n",
       "84  1654344000000   \n",
       "85  1654347600000   \n",
       "86  1654351200000   \n",
       "87  1654354800000   \n",
       "88  1654358400000   \n",
       "89  1654362000000   \n",
       "90  1654365600000   \n",
       "91  1654369200000   \n",
       "92  1654372800000   \n",
       "93  1654376400000   \n",
       "94  1654380000000   \n",
       "95  1654383600000   \n",
       "96  1654387200000   \n",
       "97  1654390800000   \n",
       "98  1654394400000   \n",
       "99  1654398000000   \n",
       "\n",
       "                                                          metar  aero  \\\n",
       "0                 METAR SBBR 010000Z 07002KT CAVOK 21/08 Q1018   SBBR   \n",
       "1                 METAR SBBR 010100Z 10002KT CAVOK 20/09 Q1019   SBBR   \n",
       "2                 METAR SBBR 010200Z 00000KT CAVOK 16/09 Q1019   SBBR   \n",
       "3                 METAR SBBR 010300Z 27002KT CAVOK 16/09 Q1019   SBBR   \n",
       "4                 METAR SBBR 010400Z 00000KT CAVOK 14/09 Q1018   SBBR   \n",
       "5                 METAR SBBR 010500Z 27004KT CAVOK 13/08 Q1018   SBBR   \n",
       "6                 METAR SBBR 010600Z 25003KT CAVOK 14/08 Q1018   SBBR   \n",
       "7                 METAR SBBR 010700Z 28002KT CAVOK 12/08 Q1018   SBBR   \n",
       "8                 METAR SBBR 010800Z VRB01KT CAVOK 11/08 Q1018   SBBR   \n",
       "9                 METAR SBBR 010900Z 26002KT CAVOK 12/09 Q1019   SBBR   \n",
       "10                METAR SBBR 011000Z VRB02KT CAVOK 11/08 Q1019   SBBR   \n",
       "11                METAR SBBR 011100Z VRB01KT CAVOK 15/10 Q1020   SBBR   \n",
       "12                METAR SBBR 011200Z VRB02KT CAVOK 20/11 Q1021   SBBR   \n",
       "13        METAR SBBR 011300Z 08009KT 050V110 CAVOK 23/12 Q1020   SBBR   \n",
       "14                METAR SBBR 011400Z 09011KT CAVOK 25/12 Q1020   SBBR   \n",
       "15        METAR SBBR 011500Z 09009KT 060V130 CAVOK 27/11 Q1019   SBBR   \n",
       "16        METAR SBBR 011600Z 08006KT 320V130 CAVOK 27/10 Q1018   SBBR   \n",
       "17        METAR SBBR 011700Z 06007KT 010V110 CAVOK 28/10 Q1017   SBBR   \n",
       "18                METAR SBBR 011800Z 06004KT CAVOK 28/09 Q1017   SBBR   \n",
       "19                METAR SBBR 011900Z 11003KT CAVOK 28/09 Q1016   SBBR   \n",
       "20        METAR SBBR 012000Z 07006KT 010V110 CAVOK 27/10 Q1016   SBBR   \n",
       "21                METAR SBBR 012100Z 11007KT CAVOK 26/09 Q1017   SBBR   \n",
       "22                METAR SBBR 012200Z 12007KT CAVOK 25/09 Q1017   SBBR   \n",
       "23                METAR SBBR 012300Z 05002KT CAVOK 22/10 Q1018   SBBR   \n",
       "24                METAR SBBR 020000Z 09002KT CAVOK 22/10 Q1019   SBBR   \n",
       "25                METAR SBBR 020100Z VRB01KT CAVOK 20/10 Q1019   SBBR   \n",
       "26                METAR SBBR 020200Z 29001KT CAVOK 17/10 Q1019   SBBR   \n",
       "27                METAR SBBR 020300Z 00000KT CAVOK 17/10 Q1019   SBBR   \n",
       "28                METAR SBBR 020400Z 27002KT CAVOK 15/10 Q1019   SBBR   \n",
       "29                METAR SBBR 020500Z 00000KT CAVOK 14/10 Q1019   SBBR   \n",
       "30                METAR SBBR 020600Z 28002KT CAVOK 15/10 Q1018   SBBR   \n",
       "31                METAR SBBR 020700Z 24002KT CAVOK 14/10 Q1018   SBBR   \n",
       "32                METAR SBBR 020800Z 27002KT CAVOK 13/10 Q1018   SBBR   \n",
       "33                METAR SBBR 020900Z 26003KT CAVOK 13/10 Q1019   SBBR   \n",
       "34                METAR SBBR 021000Z 28002KT CAVOK 14/10 Q1020   SBBR   \n",
       "35                METAR SBBR 021100Z 28002KT CAVOK 16/11 Q1020   SBBR   \n",
       "36                METAR SBBR 021200Z VRB01KT CAVOK 21/11 Q1021   SBBR   \n",
       "37        METAR SBBR 021300Z 07006KT 030V090 CAVOK 23/11 Q1021   SBBR   \n",
       "38        METAR SBBR 021400Z 07004KT 010V120 CAVOK 25/12 Q1021   SBBR   \n",
       "39        METAR SBBR 021500Z 35004KT 290V090 CAVOK 27/11 Q1020   SBBR   \n",
       "40                METAR SBBR 021600Z 30005KT CAVOK 28/09 Q1019   SBBR   \n",
       "41  METAR SBBR 021700Z 19006KT 130V230 9999 FEW040 28/10 Q1018   SBBR   \n",
       "42          METAR SBBR 021800Z VRB01KT 9999 FEW045 29/10 Q1018   SBBR   \n",
       "43        METAR SBBR 021900Z 17005KT 130V210 CAVOK 29/11 Q1017   SBBR   \n",
       "44                METAR SBBR 022000Z 17008KT CAVOK 28/11 Q1017   SBBR   \n",
       "45        METAR SBBR 022100Z 18006KT 150V210 CAVOK 26/11 Q1018   SBBR   \n",
       "46                METAR SBBR 022200Z 19004KT CAVOK 24/11 Q1019   SBBR   \n",
       "47                METAR SBBR 022300Z 19003KT CAVOK 22/10 Q1019   SBBR   \n",
       "48                METAR SBBR 030000Z 23002KT CAVOK 20/10 Q1020   SBBR   \n",
       "49                METAR SBBR 030100Z 01002KT CAVOK 19/11 Q1020   SBBR   \n",
       "50                METAR SBBR 030200Z VRB02KT CAVOK 20/10 Q1020   SBBR   \n",
       "51                METAR SBBR 030300Z 30003KT CAVOK 16/11 Q1021   SBBR   \n",
       "52                METAR SBBR 030400Z 25002KT CAVOK 16/11 Q1021   SBBR   \n",
       "53                METAR SBBR 030500Z 30002KT CAVOK 15/11 Q1021   SBBR   \n",
       "54                METAR SBBR 030600Z VRB01KT CAVOK 14/11 Q1020   SBBR   \n",
       "55                METAR SBBR 030700Z 22002KT CAVOK 15/11 Q1020   SBBR   \n",
       "56                METAR SBBR 030800Z 27002KT CAVOK 14/11 Q1020   SBBR   \n",
       "57                METAR SBBR 030900Z 00000KT CAVOK 14/10 Q1021   SBBR   \n",
       "58                METAR SBBR 031000Z 34001KT CAVOK 13/10 Q1021   SBBR   \n",
       "59                METAR SBBR 031100Z 00000KT CAVOK 16/11 Q1022   SBBR   \n",
       "60                METAR SBBR 031200Z VRB02KT CAVOK 20/12 Q1022   SBBR   \n",
       "61                METAR SBBR 031300Z VRB02KT CAVOK 24/12 Q1022   SBBR   \n",
       "62                METAR SBBR 031400Z 12013KT CAVOK 26/10 Q1022   SBBR   \n",
       "63        METAR SBBR 031500Z 15010KT 120V200 CAVOK 27/11 Q1021   SBBR   \n",
       "64                METAR SBBR 031600Z 12011KT CAVOK 27/09 Q1020   SBBR   \n",
       "65        METAR SBBR 031700Z 16011KT 100V210 CAVOK 28/09 Q1020   SBBR   \n",
       "66                METAR SBBR 031800Z 15008KT CAVOK 28/09 Q1019   SBBR   \n",
       "67                METAR SBBR 031900Z 12009KT CAVOK 28/09 Q1019   SBBR   \n",
       "68                METAR SBBR 032000Z 12009KT CAVOK 27/10 Q1019   SBBR   \n",
       "69                METAR SBBR 032100Z 13007KT CAVOK 25/10 Q1019   SBBR   \n",
       "70                METAR SBBR 032200Z 14005KT CAVOK 24/10 Q1019   SBBR   \n",
       "71                METAR SBBR 032300Z 15004KT CAVOK 22/09 Q1020   SBBR   \n",
       "72                METAR SBBR 040000Z 18003KT CAVOK 21/09 Q1020   SBBR   \n",
       "73                METAR SBBR 040100Z 28002KT CAVOK 18/10 Q1021   SBBR   \n",
       "74                METAR SBBR 040200Z 29002KT CAVOK 18/09 Q1021   SBBR   \n",
       "75                METAR SBBR 040300Z 25002KT CAVOK 17/09 Q1020   SBBR   \n",
       "76                METAR SBBR 040400Z VRB01KT CAVOK 16/10 Q1020   SBBR   \n",
       "77                METAR SBBR 040500Z 28003KT CAVOK 14/10 Q1020   SBBR   \n",
       "78                METAR SBBR 040600Z VRB01KT CAVOK 14/10 Q1019   SBBR   \n",
       "79                METAR SBBR 040700Z VRB02KT CAVOK 14/10 Q1019   SBBR   \n",
       "80                METAR SBBR 040800Z 03001KT CAVOK 14/10 Q1019   SBBR   \n",
       "81                METAR SBBR 040900Z VRB01KT CAVOK 14/09 Q1020   SBBR   \n",
       "82                METAR SBBR 041000Z 34001KT CAVOK 13/10 Q1020   SBBR   \n",
       "83                METAR SBBR 041100Z 03001KT CAVOK 16/12 Q1022   SBBR   \n",
       "84                METAR SBBR 041200Z 15002KT CAVOK 21/12 Q1022   SBBR   \n",
       "85                METAR SBBR 041300Z 13009KT CAVOK 23/12 Q1022   SBBR   \n",
       "86                METAR SBBR 041400Z 11013KT CAVOK 24/12 Q1022   SBBR   \n",
       "87          METAR SBBR 041500Z 09010KT 9999 FEW035 26/13 Q1021   SBBR   \n",
       "88          METAR SBBR 041600Z 10011KT 9999 FEW040 26/12 Q1021   SBBR   \n",
       "89          METAR SBBR 041700Z 10010KT 9999 FEW040 27/13 Q1020   SBBR   \n",
       "90  METAR SBBR 041800Z 11009KT 050V150 9999 SCT040 27/13 Q1020   SBBR   \n",
       "91          METAR SBBR 041900Z 10011KT 9999 SCT040 27/13 Q1019   SBBR   \n",
       "92          METAR SBBR 042000Z 12011KT 9999 FEW040 26/13 Q1019   SBBR   \n",
       "93                METAR SBBR 042100Z 12008KT CAVOK 24/13 Q1020   SBBR   \n",
       "94                METAR SBBR 042200Z 13007KT CAVOK 23/13 Q1020   SBBR   \n",
       "95                METAR SBBR 042300Z 12008KT CAVOK 22/13 Q1021   SBBR   \n",
       "96                METAR SBBR 050000Z 12008KT CAVOK 21/13 Q1021   SBBR   \n",
       "97        METAR SBBR 050100Z 11006KT 070V130 CAVOK 20/13 Q1021   SBBR   \n",
       "98                METAR SBBR 050200Z 03002KT CAVOK 18/13 Q1021   SBBR   \n",
       "99                METAR SBBR 050300Z 23002KT CAVOK 18/13 Q1021   SBBR   \n",
       "\n",
       "    temperature  dew_point wind_direction  visibility  wind_speed wind_gust  \\\n",
       "0          28.0       25.0    110 degrees     10000.0         9.0      None   \n",
       "1          28.0       25.0    110 degrees     10000.0         9.0      None   \n",
       "2          28.0       25.0    110 degrees     10000.0         9.0      None   \n",
       "3          28.0       25.0    110 degrees     10000.0         9.0      None   \n",
       "4          28.0       25.0    110 degrees     10000.0         9.0      None   \n",
       "5          28.0       25.0    110 degrees     10000.0         9.0      None   \n",
       "6          28.0       25.0    110 degrees     10000.0         9.0      None   \n",
       "7          28.0       25.0    110 degrees     10000.0         9.0      None   \n",
       "8          28.0       25.0    110 degrees     10000.0         9.0      None   \n",
       "9          28.0       25.0    110 degrees     10000.0         9.0      None   \n",
       "10         28.0       25.0    110 degrees     10000.0         9.0      None   \n",
       "11         28.0       25.0    110 degrees     10000.0         9.0      None   \n",
       "12         28.0       25.0    110 degrees     10000.0         9.0      None   \n",
       "13         28.0       25.0    110 degrees     10000.0         9.0      None   \n",
       "14         28.0       25.0    110 degrees     10000.0         9.0      None   \n",
       "15         28.0       25.0    110 degrees     10000.0         9.0      None   \n",
       "16         28.0       25.0    110 degrees     10000.0         9.0      None   \n",
       "17         28.0       25.0    110 degrees     10000.0         9.0      None   \n",
       "18         28.0       25.0    110 degrees     10000.0         9.0      None   \n",
       "19         28.0       25.0    110 degrees     10000.0         9.0      None   \n",
       "20         28.0       25.0    110 degrees     10000.0         9.0      None   \n",
       "21         28.0       25.0    110 degrees     10000.0         9.0      None   \n",
       "22         28.0       25.0    110 degrees     10000.0         9.0      None   \n",
       "23         28.0       25.0    110 degrees     10000.0         9.0      None   \n",
       "24         28.0       25.0    110 degrees     10000.0         9.0      None   \n",
       "25         28.0       25.0    110 degrees     10000.0         9.0      None   \n",
       "26         28.0       25.0    110 degrees     10000.0         9.0      None   \n",
       "27         28.0       25.0    110 degrees     10000.0         9.0      None   \n",
       "28         28.0       25.0    110 degrees     10000.0         9.0      None   \n",
       "29         28.0       25.0    110 degrees     10000.0         9.0      None   \n",
       "30         28.0       25.0    110 degrees     10000.0         9.0      None   \n",
       "31         28.0       25.0    110 degrees     10000.0         9.0      None   \n",
       "32         28.0       25.0    110 degrees     10000.0         9.0      None   \n",
       "33         28.0       25.0    110 degrees     10000.0         9.0      None   \n",
       "34         28.0       25.0    110 degrees     10000.0         9.0      None   \n",
       "35         28.0       25.0    110 degrees     10000.0         9.0      None   \n",
       "36         28.0       25.0    110 degrees     10000.0         9.0      None   \n",
       "37         28.0       25.0    110 degrees     10000.0         9.0      None   \n",
       "38         28.0       25.0    110 degrees     10000.0         9.0      None   \n",
       "39         28.0       25.0    110 degrees     10000.0         9.0      None   \n",
       "40         28.0       25.0    110 degrees     10000.0         9.0      None   \n",
       "41         28.0       25.0    110 degrees     10000.0         9.0      None   \n",
       "42         28.0       25.0    110 degrees     10000.0         9.0      None   \n",
       "43         28.0       25.0    110 degrees     10000.0         9.0      None   \n",
       "44         28.0       25.0    110 degrees     10000.0         9.0      None   \n",
       "45         28.0       25.0    110 degrees     10000.0         9.0      None   \n",
       "46         28.0       25.0    110 degrees     10000.0         9.0      None   \n",
       "47         28.0       25.0    110 degrees     10000.0         9.0      None   \n",
       "48         28.0       25.0    110 degrees     10000.0         9.0      None   \n",
       "49         28.0       25.0    110 degrees     10000.0         9.0      None   \n",
       "50         28.0       25.0    110 degrees     10000.0         9.0      None   \n",
       "51         28.0       25.0    110 degrees     10000.0         9.0      None   \n",
       "52         28.0       25.0    110 degrees     10000.0         9.0      None   \n",
       "53         28.0       25.0    110 degrees     10000.0         9.0      None   \n",
       "54         28.0       25.0    110 degrees     10000.0         9.0      None   \n",
       "55         28.0       25.0    110 degrees     10000.0         9.0      None   \n",
       "56         28.0       25.0    110 degrees     10000.0         9.0      None   \n",
       "57         28.0       25.0    110 degrees     10000.0         9.0      None   \n",
       "58         28.0       25.0    110 degrees     10000.0         9.0      None   \n",
       "59         28.0       25.0    110 degrees     10000.0         9.0      None   \n",
       "60         28.0       25.0    110 degrees     10000.0         9.0      None   \n",
       "61         28.0       25.0    110 degrees     10000.0         9.0      None   \n",
       "62         28.0       25.0    110 degrees     10000.0         9.0      None   \n",
       "63         28.0       25.0    110 degrees     10000.0         9.0      None   \n",
       "64         28.0       25.0    110 degrees     10000.0         9.0      None   \n",
       "65         28.0       25.0    110 degrees     10000.0         9.0      None   \n",
       "66         28.0       25.0    110 degrees     10000.0         9.0      None   \n",
       "67         28.0       25.0    110 degrees     10000.0         9.0      None   \n",
       "68         28.0       25.0    110 degrees     10000.0         9.0      None   \n",
       "69         28.0       25.0    110 degrees     10000.0         9.0      None   \n",
       "70         28.0       25.0    110 degrees     10000.0         9.0      None   \n",
       "71         28.0       25.0    110 degrees     10000.0         9.0      None   \n",
       "72         28.0       25.0    110 degrees     10000.0         9.0      None   \n",
       "73         28.0       25.0    110 degrees     10000.0         9.0      None   \n",
       "74         28.0       25.0    110 degrees     10000.0         9.0      None   \n",
       "75         28.0       25.0    110 degrees     10000.0         9.0      None   \n",
       "76         28.0       25.0    110 degrees     10000.0         9.0      None   \n",
       "77         28.0       25.0    110 degrees     10000.0         9.0      None   \n",
       "78         28.0       25.0    110 degrees     10000.0         9.0      None   \n",
       "79         28.0       25.0    110 degrees     10000.0         9.0      None   \n",
       "80         28.0       25.0    110 degrees     10000.0         9.0      None   \n",
       "81         28.0       25.0    110 degrees     10000.0         9.0      None   \n",
       "82         28.0       25.0    110 degrees     10000.0         9.0      None   \n",
       "83         28.0       25.0    110 degrees     10000.0         9.0      None   \n",
       "84         28.0       25.0    110 degrees     10000.0         9.0      None   \n",
       "85         28.0       25.0    110 degrees     10000.0         9.0      None   \n",
       "86         28.0       25.0    110 degrees     10000.0         9.0      None   \n",
       "87         28.0       25.0    110 degrees     10000.0         9.0      None   \n",
       "88         28.0       25.0    110 degrees     10000.0         9.0      None   \n",
       "89         28.0       25.0    110 degrees     10000.0         9.0      None   \n",
       "90         28.0       25.0    110 degrees     10000.0         9.0      None   \n",
       "91         28.0       25.0    110 degrees     10000.0         9.0      None   \n",
       "92         28.0       25.0    110 degrees     10000.0         9.0      None   \n",
       "93         28.0       25.0    110 degrees     10000.0         9.0      None   \n",
       "94         28.0       25.0    110 degrees     10000.0         9.0      None   \n",
       "95         28.0       25.0    110 degrees     10000.0         9.0      None   \n",
       "96         28.0       25.0    110 degrees     10000.0         9.0      None   \n",
       "97         28.0       25.0    110 degrees     10000.0         9.0      None   \n",
       "98         28.0       25.0    110 degrees     10000.0         9.0      None   \n",
       "99         28.0       25.0    110 degrees     10000.0         9.0      None   \n",
       "\n",
       "    pressure precipitation  \n",
       "0     1015.0          None  \n",
       "1     1015.0          None  \n",
       "2     1015.0          None  \n",
       "3     1015.0          None  \n",
       "4     1015.0          None  \n",
       "5     1015.0          None  \n",
       "6     1015.0          None  \n",
       "7     1015.0          None  \n",
       "8     1015.0          None  \n",
       "9     1015.0          None  \n",
       "10    1015.0          None  \n",
       "11    1015.0          None  \n",
       "12    1015.0          None  \n",
       "13    1015.0          None  \n",
       "14    1015.0          None  \n",
       "15    1015.0          None  \n",
       "16    1015.0          None  \n",
       "17    1015.0          None  \n",
       "18    1015.0          None  \n",
       "19    1015.0          None  \n",
       "20    1015.0          None  \n",
       "21    1015.0          None  \n",
       "22    1015.0          None  \n",
       "23    1015.0          None  \n",
       "24    1015.0          None  \n",
       "25    1015.0          None  \n",
       "26    1015.0          None  \n",
       "27    1015.0          None  \n",
       "28    1015.0          None  \n",
       "29    1015.0          None  \n",
       "30    1015.0          None  \n",
       "31    1015.0          None  \n",
       "32    1015.0          None  \n",
       "33    1015.0          None  \n",
       "34    1015.0          None  \n",
       "35    1015.0          None  \n",
       "36    1015.0          None  \n",
       "37    1015.0          None  \n",
       "38    1015.0          None  \n",
       "39    1015.0          None  \n",
       "40    1015.0          None  \n",
       "41    1015.0          None  \n",
       "42    1015.0          None  \n",
       "43    1015.0          None  \n",
       "44    1015.0          None  \n",
       "45    1015.0          None  \n",
       "46    1015.0          None  \n",
       "47    1015.0          None  \n",
       "48    1015.0          None  \n",
       "49    1015.0          None  \n",
       "50    1015.0          None  \n",
       "51    1015.0          None  \n",
       "52    1015.0          None  \n",
       "53    1015.0          None  \n",
       "54    1015.0          None  \n",
       "55    1015.0          None  \n",
       "56    1015.0          None  \n",
       "57    1015.0          None  \n",
       "58    1015.0          None  \n",
       "59    1015.0          None  \n",
       "60    1015.0          None  \n",
       "61    1015.0          None  \n",
       "62    1015.0          None  \n",
       "63    1015.0          None  \n",
       "64    1015.0          None  \n",
       "65    1015.0          None  \n",
       "66    1015.0          None  \n",
       "67    1015.0          None  \n",
       "68    1015.0          None  \n",
       "69    1015.0          None  \n",
       "70    1015.0          None  \n",
       "71    1015.0          None  \n",
       "72    1015.0          None  \n",
       "73    1015.0          None  \n",
       "74    1015.0          None  \n",
       "75    1015.0          None  \n",
       "76    1015.0          None  \n",
       "77    1015.0          None  \n",
       "78    1015.0          None  \n",
       "79    1015.0          None  \n",
       "80    1015.0          None  \n",
       "81    1015.0          None  \n",
       "82    1015.0          None  \n",
       "83    1015.0          None  \n",
       "84    1015.0          None  \n",
       "85    1015.0          None  \n",
       "86    1015.0          None  \n",
       "87    1015.0          None  \n",
       "88    1015.0          None  \n",
       "89    1015.0          None  \n",
       "90    1015.0          None  \n",
       "91    1015.0          None  \n",
       "92    1015.0          None  \n",
       "93    1015.0          None  \n",
       "94    1015.0          None  \n",
       "95    1015.0          None  \n",
       "96    1015.0          None  \n",
       "97    1015.0          None  \n",
       "98    1015.0          None  \n",
       "99    1015.0          None  "
      ]
     },
     "execution_count": 14,
     "metadata": {},
     "output_type": "execute_result"
    }
   ],
   "source": [
    "metar_df.head(100)"
   ]
  },
  {
   "cell_type": "code",
   "execution_count": 17,
   "metadata": {},
   "outputs": [
    {
     "data": {
      "text/plain": [
       "array([<metar.Datatypes.direction object at 0x287e7db90>], dtype=object)"
      ]
     },
     "execution_count": 17,
     "metadata": {},
     "output_type": "execute_result"
    }
   ],
   "source": [
    "metar_df['wind_direction'].unique()"
   ]
  },
  {
   "cell_type": "code",
   "execution_count": null,
   "metadata": {},
   "outputs": [],
   "source": []
  }
 ],
 "metadata": {
  "kernelspec": {
   "display_name": "Python 3",
   "language": "python",
   "name": "python3"
  },
  "language_info": {
   "codemirror_mode": {
    "name": "ipython",
    "version": 3
   },
   "file_extension": ".py",
   "mimetype": "text/x-python",
   "name": "python",
   "nbconvert_exporter": "python",
   "pygments_lexer": "ipython3",
   "version": "3.11.5"
  },
  "orig_nbformat": 4
 },
 "nbformat": 4,
 "nbformat_minor": 2
}
